{
"type": "FeatureCollection",
"name": "wdpa_mpas_india_aoi",
"crs": { "type": "name", "properties": { "name": "urn:ogc:def:crs:OGC:1.3:CRS84" } },
"features": [
{ "type": "Feature", "properties": { "receptor_type": "mpa", "source": "WDPA / Protected Planet Sep-2026 (India)", "source_year": 2026, "sensitivity_tier": "high", "protection_status": true, "name": "Thane Creek", "designation": "Wetland of International Importance (Ramsar Site)", "designation_eng": "Wetland of International Importance (Ramsar Site)", "iucn_category": "Not Reported", "status": "Designated", "area_km2": 19.118805214317199 }, "geometry": { "type": "MultiPolygon", "coordinates": [ [ [ [ 72.929135329000076, 19.099990327000057 ], [ 72.930068429000073, 19.102375277000078 ], [ 72.930697340000052, 19.10220825500005 ], [ 72.931240375000073, 19.102070523000066 ], [ 72.931641311000078, 19.102264141000035 ], [ 72.93235241900004, 19.102194336000025 ], [ 72.932905051000034, 19.102063474000033 ], [ 72.93341225100005, 19.102128093000033 ], [ 72.93366035300005, 19.102430726000023 ], [ 72.933928093000077, 19.103551021000044 ], [ 72.934183098000062, 19.104249539000023 ], [ 72.933917331000032, 19.105041011000026 ], [ 72.934152610000069, 19.106897426000046 ], [ 72.934767401000045, 19.108138304000022 ], [ 72.936747725000032, 19.107557635000035 ], [ 72.938766521000048, 19.106904573000065 ], [ 72.94088929000003, 19.111423174000038 ], [ 72.941155991000073, 19.112687877000042 ], [ 72.940995364000059, 19.113092350000045 ], [ 72.940784456000074, 19.113369266000063 ], [ 72.940772567000067, 19.113677247000055 ], [ 72.940617976000055, 19.113722550000034 ], [ 72.939821811000058, 19.113471096000069 ], [ 72.93962145200004, 19.113500270000031 ], [ 72.937961557000051, 19.113340579000067 ], [ 72.937551264000035, 19.113397596000027 ], [ 72.937552351000079, 19.11349974500007 ], [ 72.937952920000043, 19.113577848000034 ], [ 72.938537801000052, 19.113661035000064 ], [ 72.93896133800007, 19.113729651000028 ], [ 72.939569560000052, 19.113867157000072 ], [ 72.939962578000063, 19.113911504000043 ], [ 72.940497202000074, 19.11399042000005 ], [ 72.940911497000059, 19.114282349000064 ], [ 72.941536179000082, 19.114598865000062 ], [ 72.94165769600005, 19.114924428000052 ], [ 72.941496405000066, 19.115043866000065 ], [ 72.941532110000082, 19.115330247000031 ], [ 72.941659995000066, 19.115526512000031 ], [ 72.941702927000051, 19.116061007000042 ], [ 72.941899271000068, 19.116060943000036 ], [ 72.941988084000059, 19.116377664000026 ], [ 72.943016797000041, 19.116318427000067 ], [ 72.943103248000057, 19.116723837000052 ], [ 72.942905647000032, 19.116801527000064 ], [ 72.94280460300007, 19.117133582000065 ], [ 72.942842747000043, 19.117316429000027 ], [ 72.942641881000043, 19.117622495000035 ], [ 72.942367568000066, 19.11870712800004 ], [ 72.942274473000055, 19.118755012000065 ], [ 72.942248020000079, 19.118862702000058 ], [ 72.942147698000042, 19.118917274000069 ], [ 72.942086403000076, 19.119309938000072 ], [ 72.942259912000054, 19.119434419000072 ], [ 72.942125798000063, 19.120674726000061 ], [ 72.941952138000033, 19.120745529000033 ], [ 72.941974534000053, 19.121311696000078 ], [ 72.942097444000069, 19.121462762000078 ], [ 72.942081101000042, 19.122281919000045 ], [ 72.941879828000083, 19.122484974000031 ], [ 72.941648894000082, 19.123154172000056 ], [ 72.940679329000034, 19.123513048000063 ], [ 72.939002231000075, 19.12276563100005 ], [ 72.938552740000034, 19.122503145000053 ], [ 72.93838702000005, 19.122231179000039 ], [ 72.938073129000031, 19.122121837000066 ], [ 72.940447211000048, 19.127524544000039 ], [ 72.940576281000062, 19.127534295000032 ], [ 72.940783571000054, 19.127070202000027 ], [ 72.941134377000083, 19.126496318000022 ], [ 72.941853498000057, 19.125747819000026 ], [ 72.942742398000064, 19.122483685000077 ], [ 72.943422892000058, 19.120311388000061 ], [ 72.943517349000047, 19.120251500000052 ], [ 72.943871973000057, 19.120179902000075 ], [ 72.951568454000039, 19.120514067000045 ], [ 72.952036595000038, 19.120380546000035 ], [ 72.955578653000032, 19.120452928000077 ], [ 72.955689041000085, 19.121948512000074 ], [ 72.955982980000044, 19.122485182000048 ], [ 72.956360656000072, 19.123148663000052 ], [ 72.957101813000065, 19.123612666000042 ], [ 72.957269094000083, 19.124916293000069 ], [ 72.956160268000076, 19.125728588000072 ], [ 72.955828333000056, 19.126838716000066 ], [ 72.953903809000053, 19.127011780000032 ], [ 72.951542928000038, 19.127533271000061 ], [ 72.949996872000042, 19.127808811000023 ], [ 72.944400286000075, 19.128196209000066 ], [ 72.943332695000038, 19.128072994000036 ], [ 72.943225346000077, 19.129748926000048 ], [ 72.943282981000038, 19.132432116000075 ], [ 72.946604769000032, 19.13767643500006 ], [ 72.948298958000066, 19.140458281000065 ], [ 72.95187246100005, 19.146290659000044 ], [ 72.955105289000073, 19.151428064000072 ], [ 72.955694742000048, 19.151122188000045 ], [ 72.957082791000062, 19.150820739000039 ], [ 72.958943957000031, 19.150465026000063 ], [ 72.96192701800004, 19.148749613000064 ], [ 72.96210919400005, 19.148749543000065 ], [ 72.962743445000058, 19.148470104000069 ], [ 72.962705166000035, 19.146316632000037 ], [ 72.961767933000033, 19.145353447000048 ], [ 72.960504136000054, 19.145061227000042 ], [ 72.960496765000073, 19.144230624000045 ], [ 72.960534234000079, 19.143675219000045 ], [ 72.958333903000039, 19.14282987100006 ], [ 72.95712805200003, 19.142305731000022 ], [ 72.957532126000046, 19.141338907000033 ], [ 72.957964253000057, 19.140350924000074 ], [ 72.958019126000067, 19.140217197000027 ], [ 72.964200686000083, 19.142584184000043 ], [ 72.963543043000072, 19.144468851000056 ], [ 72.963437385000077, 19.144746226000052 ], [ 72.963306966000061, 19.144858243000044 ], [ 72.963075133000075, 19.144878290000065 ], [ 72.963019668000072, 19.144904541000074 ], [ 72.963074762000076, 19.144961802000068 ], [ 72.963079012000037, 19.145148371000062 ], [ 72.963351282000076, 19.145187834000069 ], [ 72.964583788000084, 19.145390571000064 ], [ 72.964409276000083, 19.146349742000041 ], [ 72.962825938000037, 19.146103397000047 ], [ 72.962866167000072, 19.147455638000054 ], [ 72.962868381000078, 19.148565509000036 ], [ 72.96270953100003, 19.148630939000043 ], [ 72.96209712600006, 19.148882161000074 ], [ 72.961876496000059, 19.148869199000046 ], [ 72.960285637000084, 19.149849177000078 ], [ 72.95888220300003, 19.150623169000028 ], [ 72.95712724200007, 19.150877570000034 ], [ 72.955876115000081, 19.151137170000027 ], [ 72.955387097000084, 19.151538822000077 ], [ 72.955274504000045, 19.151737834000073 ], [ 72.955702699000028, 19.152387723000061 ], [ 72.956664514000067, 19.153797385000075 ], [ 72.957382136000035, 19.154901036000069 ], [ 72.958187208000084, 19.156090924000068 ], [ 72.959058195000068, 19.157379312000046 ], [ 72.959877892000065, 19.158585841000047 ], [ 72.961044639000079, 19.160307493000062 ], [ 72.962049701000069, 19.161731348000046 ], [ 72.962428304000071, 19.162262263000059 ], [ 72.962709200000063, 19.162129977000063 ], [ 72.962956610000049, 19.162531167000054 ], [ 72.962794792000068, 19.162722906000056 ], [ 72.963354980000076, 19.162868659000026 ], [ 72.963863305000075, 19.163265710000076 ], [ 72.964250551000077, 19.163461710000036 ], [ 72.964553557000045, 19.164016899000046 ], [ 72.964792704000047, 19.163894298000059 ], [ 72.96516766700006, 19.163806744000055 ], [ 72.965456337000035, 19.163836029000038 ], [ 72.965451364000046, 19.163967956000022 ], [ 72.967248214000051, 19.16531333100005 ], [ 72.969088729000077, 19.166978409000023 ], [ 72.969936007000058, 19.167820219000077 ], [ 72.970651205000081, 19.167709306000063 ], [ 72.97051988000004, 19.167346073000033 ], [ 72.970586474000072, 19.167028402000028 ], [ 72.970783022000035, 19.166987814000038 ], [ 72.971009699000035, 19.167052203000026 ], [ 72.971367506000036, 19.16749216200003 ], [ 72.971564736000062, 19.167731282000034 ], [ 72.972650944000065, 19.168139191000023 ], [ 72.973068736000073, 19.16830784800004 ], [ 72.973148728000069, 19.168425941000066 ], [ 72.973152492000054, 19.16867931400003 ], [ 72.972876033000034, 19.168810269000062 ], [ 72.972198872000035, 19.169073172000026 ], [ 72.971814123000058, 19.169539987000064 ], [ 72.971328066000069, 19.170038125000076 ], [ 72.970840744000043, 19.170105078000063 ], [ 72.97025614100005, 19.170161173000054 ], [ 72.969883055000082, 19.170294628000022 ], [ 72.969528353000044, 19.17066987100003 ], [ 72.969115396000063, 19.170865660000061 ], [ 72.968893051000066, 19.170724528000051 ], [ 72.968778049000036, 19.170441740000058 ], [ 72.968728064000061, 19.170086126000058 ], [ 72.968661386000065, 19.169951635000075 ], [ 72.968565390000037, 19.169847846000039 ], [ 72.968418480000082, 19.169731594000041 ], [ 72.968251236000071, 19.169703739000056 ], [ 72.968106988000045, 19.169698448000076 ], [ 72.968013658000075, 19.169859771000063 ], [ 72.967780892000064, 19.170135877000064 ], [ 72.967960671000071, 19.170395196000072 ], [ 72.968289378000065, 19.17014776700006 ], [ 72.96847523200006, 19.170218122000051 ], [ 72.968477404000055, 19.170546881000064 ], [ 72.968706213000075, 19.17101284000006 ], [ 72.96899417700007, 19.171277022000027 ], [ 72.969760751000081, 19.17086062900006 ], [ 72.970461819000036, 19.170447913000032 ], [ 72.970853459000068, 19.170413692000068 ], [ 72.971327963000078, 19.170345863000023 ], [ 72.971387753000045, 19.170731698000054 ], [ 72.971466940000084, 19.171006746000046 ], [ 72.971705980000081, 19.170922501000064 ], [ 72.971758140000077, 19.170716392000031 ], [ 72.971780424000031, 19.170565724000028 ], [ 72.971616663000077, 19.170398930000033 ], [ 72.97169180700007, 19.170160758000065 ], [ 72.971811110000033, 19.170081639000045 ], [ 72.971948885000074, 19.169980636000048 ], [ 72.972102512000049, 19.169787629000041 ], [ 72.97226014000006, 19.169695385000068 ], [ 72.973049828000057, 19.169208592000075 ], [ 72.973150314000065, 19.169285722000041 ], [ 72.973425169000052, 19.169180291000032 ], [ 72.973720760000049, 19.168966992000037 ], [ 72.97389667300007, 19.168772215000047 ], [ 72.973997666000059, 19.168590883000036 ], [ 72.974086954000029, 19.16839731500005 ], [ 72.974429487000066, 19.168432578000022 ], [ 72.974697030000073, 19.168675094000037 ], [ 72.974909482000044, 19.168970521000062 ], [ 72.974936296000067, 19.169165268000029 ], [ 72.975072623000074, 19.169249791000027 ], [ 72.97528025400004, 19.169383133000053 ], [ 72.975452731000075, 19.16956570800005 ], [ 72.97561962900005, 19.16995213000007 ], [ 72.975886324000044, 19.170043356000065 ], [ 72.976089208000076, 19.170111576000068 ], [ 72.97583734300008, 19.170702026000072 ], [ 72.976039850000063, 19.171048048000046 ], [ 72.976156705000051, 19.171366630000023 ], [ 72.976066927000034, 19.171695214000067 ], [ 72.975794565000058, 19.172143886000072 ], [ 72.975903197000036, 19.172638139000071 ], [ 72.97540712700004, 19.173215437000067 ], [ 72.976088971000081, 19.173600413000031 ], [ 72.973878472000081, 19.17649442000004 ], [ 72.974479544000076, 19.177701866000064 ], [ 72.974931668000067, 19.17892839700005 ], [ 72.975564596000083, 19.180223751000028 ], [ 72.976540837000073, 19.181013439000026 ], [ 72.979392505000078, 19.180432676000066 ], [ 72.979241475000038, 19.179437149000023 ], [ 72.980916562000061, 19.179158014000052 ], [ 72.980974717000038, 19.179385007000064 ], [ 72.981119635000084, 19.180032296000036 ], [ 72.981023497000081, 19.180338010000071 ], [ 72.981155017000049, 19.180833977000077 ], [ 72.980361876000075, 19.181046400000071 ], [ 72.980436384000029, 19.181288605000077 ], [ 72.981224777000079, 19.181132419000051 ], [ 72.981316553000056, 19.181552526000075 ], [ 72.981579389000046, 19.181474089000062 ], [ 72.981764455000075, 19.181410800000037 ], [ 72.981839601000047, 19.181500253000024 ], [ 72.982221622000054, 19.18135021300003 ], [ 72.982385011000076, 19.181652107000048 ], [ 72.982644821000065, 19.182024632000036 ], [ 72.982739045000073, 19.182236892000049 ], [ 72.982578923000062, 19.182637382000053 ], [ 72.982514055000081, 19.18269310900007 ], [ 72.981930496000075, 19.183228279000048 ], [ 72.981524471000057, 19.183613691000062 ], [ 72.981117061000077, 19.184100503000025 ], [ 72.981240352000043, 19.18414371700004 ], [ 72.981190780000077, 19.184283871000048 ], [ 72.980969358000038, 19.184241409000037 ], [ 72.980907527000056, 19.184633692000034 ], [ 72.980997079000076, 19.184984893000035 ], [ 72.981135552000069, 19.185046914000054 ], [ 72.981065519000083, 19.185726875000057 ], [ 72.98093022300003, 19.18596339000004 ], [ 72.980964457000084, 19.18617800800007 ], [ 72.980901275000065, 19.187073854000062 ], [ 72.98102515000005, 19.187212897000052 ], [ 72.981003672000043, 19.187472843000023 ], [ 72.981235573000049, 19.187530458000026 ], [ 72.984664344000066, 19.188464026000077 ], [ 72.985998263000056, 19.188833155000054 ], [ 72.986445251000077, 19.188104053000075 ], [ 72.986820334000072, 19.186261342000023 ], [ 72.987152861000084, 19.185564101000068 ], [ 72.987211706000039, 19.185703305000061 ], [ 72.987434301000064, 19.185751408000044 ], [ 72.987406197000041, 19.185526138000057 ], [ 72.987216052000065, 19.185399377000067 ], [ 72.987260184000036, 19.185329009000043 ], [ 72.987815112000078, 19.185289129000068 ], [ 72.987655829000062, 19.184536372000025 ], [ 72.987870235000059, 19.184498735000034 ], [ 72.98795965100004, 19.184322682000072 ], [ 72.988077174000068, 19.184353528000031 ], [ 72.988185950000059, 19.184157362000064 ], [ 72.988228854000056, 19.184050157000058 ], [ 72.988236706000066, 19.184041323000031 ], [ 72.988347329000078, 19.184017849000043 ], [ 72.98838874900008, 19.183876293000026 ], [ 72.98844538000003, 19.183735827000078 ], [ 72.98837485100006, 19.183713563000026 ], [ 72.988377946000071, 19.183533219000026 ], [ 72.98841599800005, 19.183462853000037 ], [ 72.98837519500006, 19.183424507000041 ], [ 72.988356887000066, 19.183445369000026 ], [ 72.988304364000044, 19.183386519000067 ], [ 72.988376648000042, 19.183136909000041 ], [ 72.988418253000077, 19.183117619000029 ], [ 72.988518505000059, 19.183124059000022 ], [ 72.988596557000051, 19.183079345000067 ], [ 72.988574222000068, 19.182890351000026 ], [ 72.988556283000037, 19.18281259500003 ], [ 72.988494165000077, 19.182833359000028 ], [ 72.988226499000064, 19.182750913000064 ], [ 72.988078246000043, 19.182701747000067 ], [ 72.988065044000052, 19.182653254000058 ], [ 72.988063808000049, 19.182572006000044 ], [ 72.988138279000054, 19.182558191000055 ], [ 72.988114622000069, 19.182307865000041 ], [ 72.988062914000068, 19.182219072000066 ], [ 72.987961704000043, 19.182264435000036 ], [ 72.987938257000053, 19.182180696000046 ], [ 72.987810556000056, 19.18176191200007 ], [ 72.987804638000057, 19.181755955000028 ], [ 72.987776177000057, 19.181653235000056 ], [ 72.987741423000045, 19.181638788000043 ], [ 72.987641458000041, 19.181581570000048 ], [ 72.987620129000049, 19.181500195000069 ], [ 72.987698298000055, 19.181305857000041 ], [ 72.987695700000074, 19.181187110000053 ], [ 72.987678206000055, 19.181121761000043 ], [ 72.98767289500006, 19.181116786000075 ], [ 72.987485311000057, 19.180999512000028 ], [ 72.987277105000032, 19.180897274000074 ], [ 72.987101389000031, 19.180459398000039 ], [ 72.987100915000042, 19.179975947000059 ], [ 72.987171592000038, 19.179340140000022 ], [ 72.987404470000058, 19.179333430000042 ], [ 72.987443724000059, 19.179239657000039 ], [ 72.987354825000068, 19.179206400000055 ], [ 72.987201144000039, 19.17912711200006 ], [ 72.98733552200008, 19.179074683000067 ], [ 72.987818872000048, 19.179306582000038 ], [ 72.987837770000056, 19.179120610000041 ], [ 72.987624443000072, 19.179009610000037 ], [ 72.987240480000082, 19.178779245000044 ], [ 72.987245374000054, 19.178529225000034 ], [ 72.987066172000084, 19.177993375000028 ], [ 72.986742011000047, 19.177510306000045 ], [ 72.986607143000072, 19.177288562000058 ], [ 72.986471460000075, 19.176982103000057 ], [ 72.986197878000041, 19.176778039000055 ], [ 72.986160719000054, 19.176695856000038 ], [ 72.986090782000076, 19.176670595000076 ], [ 72.985971393000057, 19.176705979000076 ], [ 72.985853599000052, 19.176628091000055 ], [ 72.985465400000066, 19.175788436000062 ], [ 72.985435371000051, 19.175605191000045 ], [ 72.985582841000053, 19.175421569000036 ], [ 72.985537823000072, 19.175328308000076 ], [ 72.985524097000052, 19.175196360000029 ], [ 72.985468498000046, 19.175041846000056 ], [ 72.985562782000045, 19.174899569000047 ], [ 72.985455689000048, 19.174843776000046 ], [ 72.98553714600007, 19.174677435000035 ], [ 72.985575484000037, 19.174569958000063 ], [ 72.985844758000042, 19.174631681000051 ], [ 72.986090618000048, 19.17452583000005 ], [ 72.986541045000081, 19.174506783000027 ], [ 72.986501967000038, 19.174182368000061 ], [ 72.98627232900003, 19.17412517300005 ], [ 72.985625416000062, 19.174101682000071 ], [ 72.985440696000069, 19.174095522000073 ], [ 72.985376386000041, 19.173956616000055 ], [ 72.985147489000042, 19.173582453000051 ], [ 72.984794944000043, 19.173183429000062 ], [ 72.984440950000078, 19.172045106000041 ], [ 72.984529105000036, 19.171550384000057 ], [ 72.984782157000041, 19.171128328000066 ], [ 72.98489392700003, 19.170525504000068 ], [ 72.985042879000048, 19.170308043000034 ], [ 72.985118954000029, 19.170251615000041 ], [ 72.985375651000084, 19.170191994000049 ], [ 72.985917656000083, 19.170224473000076 ], [ 72.98631589200005, 19.170232503000022 ], [ 72.98652971100006, 19.170198836000054 ], [ 72.98919984500003, 19.170738394000068 ], [ 72.989702077000061, 19.170834141000057 ], [ 72.991009640000073, 19.170888987000069 ], [ 72.991045287000077, 19.169393992000039 ], [ 72.991059294000081, 19.167992078000054 ], [ 72.990784459000054, 19.167627612000047 ], [ 72.990281849000041, 19.167217328000049 ], [ 72.989218192000067, 19.16614026600007 ], [ 72.989114394000069, 19.16583827200003 ], [ 72.989006056000051, 19.16326179400005 ], [ 72.98893066100004, 19.161407267000072 ], [ 72.989209050000056, 19.160508212000025 ], [ 72.989722368000059, 19.159855035000078 ], [ 72.990572335000081, 19.159070259000032 ], [ 72.992249202000039, 19.157777876000068 ], [ 72.992210533000048, 19.157733148000034 ], [ 72.991708780000067, 19.157242296000049 ], [ 72.991674403000047, 19.156630241000073 ], [ 72.991847643000028, 19.156540478000068 ], [ 72.991907216000072, 19.156536954000046 ], [ 72.992020032000084, 19.156519332000073 ], [ 72.992194164000068, 19.156526436000036 ], [ 72.99225969400004, 19.156579825000051 ], [ 72.992477210000061, 19.156610160000071 ], [ 72.992860806000067, 19.156656766000026 ], [ 72.993093573000067, 19.156730479000032 ], [ 72.993172272000038, 19.156401622000033 ], [ 72.993095795000045, 19.155468700000029 ], [ 72.990326027000037, 19.155683389000046 ], [ 72.989719207000064, 19.155390097000065 ], [ 72.989805053000055, 19.154266494000069 ], [ 72.990850858000044, 19.153971422000041 ], [ 72.992930414000057, 19.153842810000071 ], [ 72.992825888000084, 19.151929879000022 ], [ 72.992792730000076, 19.151583857000048 ], [ 72.99185269700007, 19.151637343000061 ], [ 72.991085127000076, 19.151668164000057 ], [ 72.989575129000059, 19.151657314000033 ], [ 72.989451718000055, 19.15172371500006 ], [ 72.987316559000078, 19.155032687000073 ], [ 72.985167268000055, 19.153811461000032 ], [ 72.984923685000069, 19.153665248000038 ], [ 72.985145645000046, 19.153168420000043 ], [ 72.985258233000081, 19.152969614000028 ], [ 72.985479266000084, 19.152570643000047 ], [ 72.98571277800005, 19.15227778700006 ], [ 72.986013208000031, 19.151809786000058 ], [ 72.986636439000051, 19.150748405000058 ], [ 72.986364664000064, 19.150643777000028 ], [ 72.986177367000039, 19.150163831000043 ], [ 72.984317910000073, 19.150480020000032 ], [ 72.984298611000042, 19.150218712000026 ], [ 72.984250751000047, 19.149971448000031 ], [ 72.984262751000074, 19.149903560000041 ], [ 72.985326907000058, 19.149695232000056 ], [ 72.984970855000029, 19.147842203000039 ], [ 72.985047314000042, 19.147732683000072 ], [ 72.985197959000061, 19.147604736000062 ], [ 72.985307363000061, 19.147682438000061 ], [ 72.985489980000068, 19.147768542000051 ], [ 72.985522667000055, 19.147914026000024 ], [ 72.985917728000061, 19.148044905000063 ], [ 72.98645549500003, 19.148135719000038 ], [ 72.986680835000072, 19.148644483000055 ], [ 72.986857987000064, 19.148977677000062 ], [ 72.987021144000039, 19.149090294000075 ], [ 72.98698855400005, 19.148616373000038 ], [ 72.986992060000034, 19.14828373000006 ], [ 72.987021236000032, 19.148053650000065 ], [ 72.985592211000039, 19.145911530000035 ], [ 72.984741367000083, 19.144676810000078 ], [ 72.984647634000055, 19.144097135000038 ], [ 72.98434882600003, 19.142287034000049 ], [ 72.983653980000042, 19.140324415000066 ], [ 72.983745851000037, 19.139739813000062 ], [ 72.98383881400008, 19.139125963000026 ], [ 72.983797241000048, 19.138083418000065 ], [ 72.983768161000057, 19.137680400000022 ], [ 72.983954597000036, 19.137219019000042 ], [ 72.984235144000081, 19.137194530000045 ], [ 72.984717031000059, 19.13630243800003 ], [ 72.985109635000072, 19.136021242000027 ], [ 72.98568047200007, 19.136075204000065 ], [ 72.985967260000052, 19.13634373900004 ], [ 72.986340561000077, 19.137099358000057 ], [ 72.98656916200008, 19.137437422000062 ], [ 72.986673800000062, 19.137827723000044 ], [ 72.986726542000042, 19.138128378000033 ], [ 72.986989837000067, 19.139333929000031 ], [ 72.988068637000083, 19.142503709000039 ], [ 72.988667601000031, 19.142744619000041 ], [ 72.989086980000081, 19.142556113000069 ], [ 72.989327724000077, 19.142404137000028 ], [ 72.989727372000061, 19.142226578000077 ], [ 72.990050176000068, 19.14207323100004 ], [ 72.990747772000077, 19.14173124000007 ], [ 72.992184443000042, 19.141450764000069 ], [ 72.992667077000078, 19.14166786800007 ], [ 72.995867721000081, 19.141924828000072 ], [ 72.995953180000072, 19.138219953000032 ], [ 72.99595161600007, 19.136996760000045 ], [ 72.996065490000035, 19.136452194000071 ], [ 72.996173958000043, 19.136058391000063 ], [ 72.996301564000078, 19.135778435000077 ], [ 72.996244194000042, 19.135544045000074 ], [ 72.996241864000069, 19.135139004000052 ], [ 72.99597624300003, 19.134451114000058 ], [ 72.995607487000029, 19.134341249000045 ], [ 72.994570352000039, 19.13457134600003 ], [ 72.994200602000035, 19.134378041000048 ], [ 72.99383484100008, 19.134348458000034 ], [ 72.993728789000045, 19.133533751000073 ], [ 72.99365911700005, 19.133183963000022 ], [ 72.993283783000038, 19.133212515000025 ], [ 72.993138983000051, 19.13316386300005 ], [ 72.99271295300008, 19.13301102500003 ], [ 72.992494961000034, 19.132549074000053 ], [ 72.992379550000067, 19.132068755000034 ], [ 72.992410622000079, 19.13185786400004 ], [ 72.992714668000076, 19.131531574000064 ], [ 72.993012670000041, 19.131289855000034 ], [ 72.993183116000068, 19.130525716000022 ], [ 72.993474867000032, 19.130499633000056 ], [ 72.993484010000032, 19.130139093000025 ], [ 72.993601719000083, 19.130056925000076 ], [ 72.994087095000054, 19.128383269000039 ], [ 72.994052951000072, 19.128243916000031 ], [ 72.993493044000047, 19.127848305000043 ], [ 72.992998396000075, 19.127886712000077 ], [ 72.992635954000036, 19.127959361000023 ], [ 72.99205717600006, 19.128353995000055 ], [ 72.991648349000059, 19.128475021000042 ], [ 72.990012570000033, 19.128028960000051 ], [ 72.989275777000046, 19.127830241000026 ], [ 72.988801399000067, 19.127588321000076 ], [ 72.988689076000071, 19.127050225000062 ], [ 72.988621279000029, 19.126973306000025 ], [ 72.988608631000034, 19.126865526000074 ], [ 72.988464930000077, 19.126605047000055 ], [ 72.988264398000069, 19.126161606000039 ], [ 72.988062771000045, 19.125546935000045 ], [ 72.98774615800005, 19.124667635000037 ], [ 72.987687495000046, 19.124448670000049 ], [ 72.987611187000084, 19.124259930000051 ], [ 72.987471443000061, 19.123923035000075 ], [ 72.986986304000084, 19.122999328000049 ], [ 72.986941947000048, 19.122792016000062 ], [ 72.98689601500007, 19.122613414000057 ], [ 72.986806110000032, 19.122262860000035 ], [ 72.98677876000005, 19.122115308000048 ], [ 72.986956338000084, 19.121460785000068 ], [ 72.987113694000072, 19.120941620000053 ], [ 72.987189735000072, 19.120626214000026 ], [ 72.987237863000075, 19.12049309300005 ], [ 72.986955719000036, 19.120010948000072 ], [ 72.98667024000008, 19.119630058000041 ], [ 72.986651555000037, 19.119414368000037 ], [ 72.986713575000067, 19.11919223600006 ], [ 72.986939973000062, 19.119063519000065 ], [ 72.98729684500006, 19.119161830000053 ], [ 72.987705012000049, 19.119371808000039 ], [ 72.988247774000058, 19.119632383000067 ], [ 72.988545324000029, 19.119325969000045 ], [ 72.988705956000047, 19.119120667000061 ], [ 72.988936444000046, 19.118768699000043 ], [ 72.989010027000063, 19.117126634000044 ], [ 72.988418808000063, 19.115599260000067 ], [ 72.988434909000034, 19.115299640000046 ], [ 72.988554814000054, 19.115021002000049 ], [ 72.98877062300005, 19.114780274000054 ], [ 72.989004741000031, 19.114701297000067 ], [ 72.989327718000084, 19.114627158000076 ], [ 72.989790388000074, 19.11452003200003 ], [ 72.989976365000075, 19.114514427000074 ], [ 72.99026817400005, 19.114559362000023 ], [ 72.990605102000075, 19.114684023000052 ], [ 72.990676970000038, 19.114735488000065 ], [ 72.991176340000038, 19.115320208000071 ], [ 72.991563275000033, 19.115973649000068 ], [ 72.991633494000041, 19.116540308000026 ], [ 72.992834010000081, 19.116852272000074 ], [ 72.994070485000066, 19.115696197000034 ], [ 72.99531982600007, 19.115061185000059 ], [ 72.997738512000069, 19.113848700000062 ], [ 72.998116332000052, 19.11364803500004 ], [ 73.000749922000068, 19.112451306000025 ], [ 73.001279324000052, 19.110529341000074 ], [ 72.997903354000073, 19.109568989000024 ], [ 72.997475623000071, 19.108131612000022 ], [ 72.996995298000058, 19.106853956000066 ], [ 72.996873367000035, 19.10660073300005 ], [ 72.996805283000072, 19.104712274000065 ], [ 72.996559650000052, 19.103752893000035 ], [ 72.996546460000047, 19.103702702000078 ], [ 72.995733528000073, 19.100406435000025 ], [ 72.99541791200005, 19.099206902000049 ], [ 72.995030513000074, 19.097904293000056 ], [ 72.996213514000033, 19.097653627000057 ], [ 72.996345313000063, 19.097635883000066 ], [ 72.996354960000076, 19.097231727000064 ], [ 72.996337297000082, 19.096868279000034 ], [ 72.99626537000006, 19.096235058000048 ], [ 72.995645745000047, 19.096389412000065 ], [ 72.994072619000065, 19.097196592000046 ], [ 72.993262786000059, 19.097177994000049 ], [ 72.992765904000066, 19.096916252000028 ], [ 72.992423775000077, 19.096450466000022 ], [ 72.992309797000075, 19.095661679000045 ], [ 72.992730852000079, 19.095214295000062 ], [ 72.992747859000076, 19.095179827000038 ], [ 72.993478588000073, 19.094644492000043 ], [ 72.99425207400003, 19.094127552000032 ], [ 72.99488023300006, 19.093768675000035 ], [ 72.999548565000055, 19.093580595000049 ], [ 73.00030487500004, 19.093524659000025 ], [ 73.004578047000052, 19.096990660000074 ], [ 73.005403233000038, 19.097340380000048 ], [ 73.005636861000085, 19.095973024000045 ], [ 73.005393489000085, 19.09235973400007 ], [ 73.004336275000071, 19.092531425000061 ], [ 73.00413737100007, 19.092482524000047 ], [ 73.003384738000079, 19.091917716000069 ], [ 73.003089940000052, 19.091521595000074 ], [ 73.002883753000049, 19.091339381000068 ], [ 73.00152279200006, 19.090099805000023 ], [ 73.00070067200005, 19.089430630000038 ], [ 73.000336755000035, 19.089123250000057 ], [ 73.000168518000066, 19.088704540000037 ], [ 72.999982596000052, 19.088384575000077 ], [ 72.999207398000067, 19.087333311000066 ], [ 72.999145210000052, 19.087245856000038 ], [ 72.999017669000068, 19.087073610000061 ], [ 72.998825887000066, 19.086821118000046 ], [ 72.998578558000077, 19.086475912000026 ], [ 72.998247238000033, 19.086011222000025 ], [ 72.997845740000059, 19.085516821000056 ], [ 72.997702508000032, 19.085446958000034 ], [ 72.99756695800005, 19.085480250000046 ], [ 72.99717697400007, 19.085763843000052 ], [ 72.997050965000028, 19.085500725000031 ], [ 72.996806393000043, 19.08486173700004 ], [ 72.996727268000029, 19.084791278000068 ], [ 72.995498518000034, 19.083504004000076 ], [ 72.995333311000081, 19.083402361000026 ], [ 72.98994216400007, 19.077159703000063 ], [ 72.988946073000079, 19.076005828000064 ], [ 72.987181952000071, 19.076218567000069 ], [ 72.986373793000041, 19.076282022000044 ], [ 72.985056754000084, 19.075870253000062 ], [ 72.984644202000084, 19.075566067000068 ], [ 72.984256875000028, 19.071814235000033 ], [ 72.984132999000053, 19.071381433000056 ], [ 72.984088160000056, 19.071173119000036 ], [ 72.984158903000036, 19.071105974000034 ], [ 72.984146678000059, 19.070817143000056 ], [ 72.983906713000067, 19.070576841000047 ], [ 72.983974854000053, 19.070279077000066 ], [ 72.98415772900006, 19.070040432000042 ], [ 72.984263906000081, 19.069748898000057 ], [ 72.984125506000055, 19.069625044000077 ], [ 72.984370110000043, 19.069274698000072 ], [ 72.984675173000085, 19.06908936800005 ], [ 72.984985280000046, 19.068931490000068 ], [ 72.985087982000039, 19.068700602000035 ], [ 72.985197744000061, 19.068592461000037 ], [ 72.984911475000047, 19.068277900000055 ], [ 72.984403333000046, 19.068427529000076 ], [ 72.982973190000052, 19.067180802000053 ], [ 72.983032620000074, 19.067099729000063 ], [ 72.982161538000071, 19.066297381000027 ], [ 72.982465832000059, 19.065950427000075 ], [ 72.98181831100004, 19.065323298000067 ], [ 72.98081353300006, 19.064841820000026 ], [ 72.977982843000063, 19.063793024000063 ], [ 72.978029250000077, 19.063481446000026 ], [ 72.971314837000079, 19.061901824000074 ], [ 72.962908867000067, 19.059906870000077 ], [ 72.960285626000029, 19.059320749000051 ], [ 72.958411301000069, 19.058893418000025 ], [ 72.958036565000043, 19.058835240000064 ], [ 72.957271568000067, 19.058738427000037 ], [ 72.954935531000046, 19.057841952000047 ], [ 72.94644887100003, 19.054824857000028 ], [ 72.944263068000055, 19.054032279000069 ], [ 72.943643628000075, 19.053796414000033 ], [ 72.936891548000062, 19.051427344000047 ], [ 72.936568020000038, 19.051841417000048 ], [ 72.940747975000079, 19.053456855000036 ], [ 72.940920110000036, 19.053523101000053 ], [ 72.940841959000068, 19.053686480000067 ], [ 72.940978941000083, 19.053963851000049 ], [ 72.94115940100005, 19.054067177000036 ], [ 72.941114757000037, 19.054422554000041 ], [ 72.940894924000077, 19.054456848000029 ], [ 72.940741778000074, 19.054656870000031 ], [ 72.940508977000036, 19.054665930000056 ], [ 72.940314920000048, 19.054697994000037 ], [ 72.940109455000083, 19.054750567000042 ], [ 72.940083505000075, 19.054828444000066 ], [ 72.940358901000081, 19.055009115000075 ], [ 72.940485537000029, 19.055291754000052 ], [ 72.941078111000081, 19.055719699000065 ], [ 72.941462179000041, 19.055708887000037 ], [ 72.942194698000037, 19.056296358000054 ], [ 72.941891165000072, 19.057480873000031 ], [ 72.939830633000042, 19.058581915000048 ], [ 72.939840636000042, 19.057461180000075 ], [ 72.93958537900005, 19.057526598000038 ], [ 72.939612430000068, 19.057933448000028 ], [ 72.939341125000055, 19.058761343000072 ], [ 72.938948314000072, 19.058951490000027 ], [ 72.938671192000072, 19.058970298000077 ], [ 72.937833687000079, 19.058768325000074 ], [ 72.937789765000048, 19.058478470000068 ], [ 72.93744848700004, 19.058178837000071 ], [ 72.93633335100003, 19.057464092000032 ], [ 72.936186053000029, 19.057493836000049 ], [ 72.936278281000057, 19.057857671000022 ], [ 72.935898158000043, 19.058119454000064 ], [ 72.935772345000032, 19.058265778000077 ], [ 72.93559528000003, 19.058437002000062 ], [ 72.935542492000081, 19.05866977200003 ], [ 72.93486387400003, 19.058690666000075 ], [ 72.934196125000028, 19.058444303000044 ], [ 72.933919244000037, 19.058171972000025 ], [ 72.93355953300005, 19.05768125000003 ], [ 72.93323454700004, 19.057321897000065 ], [ 72.932850550000069, 19.056822683000064 ], [ 72.932894427000065, 19.056453973000032 ], [ 72.932915549000029, 19.055998915000032 ], [ 72.932550312000046, 19.05627830800006 ], [ 72.932501725000066, 19.056684973000074 ], [ 72.93260349500008, 19.057059714000047 ], [ 72.933058605000042, 19.057543333000069 ], [ 72.933241029000044, 19.058265389000042 ], [ 72.932858120000049, 19.058779060000063 ], [ 72.932612576000054, 19.058640628000035 ], [ 72.93192257000004, 19.058137240000065 ], [ 72.930933714000048, 19.057326869000065 ], [ 72.930227936000051, 19.056698472000051 ], [ 72.929400960000066, 19.05683646600005 ], [ 72.930077404000031, 19.057142458000044 ], [ 72.929902825000056, 19.057465090000051 ], [ 72.931166869000037, 19.058154589000026 ], [ 72.930893698000034, 19.058578690000047 ], [ 72.93136790300008, 19.058855846000029 ], [ 72.931207827000037, 19.059164992000035 ], [ 72.931191647000048, 19.059164992000035 ], [ 72.931182129000035, 19.05938367300007 ], [ 72.932795187000067, 19.060347795000041 ], [ 72.933068069000058, 19.059886869000024 ], [ 72.933721343000059, 19.059909221000055 ], [ 72.933754559000079, 19.05988684700003 ], [ 72.934315664000053, 19.059523794000029 ], [ 72.934953678000056, 19.059362794000037 ], [ 72.935709891000045, 19.059280238000042 ], [ 72.937084923000043, 19.059280904000047 ], [ 72.93720148400007, 19.059948505000023 ], [ 72.937201118000075, 19.060550028000023 ], [ 72.936955921000049, 19.061500394000063 ], [ 72.936394675000031, 19.062610464000045 ], [ 72.936088970000071, 19.063077254000063 ], [ 72.935793419000049, 19.063323027000024 ], [ 72.935715951000077, 19.063500865000037 ], [ 72.935506847000056, 19.064904897000076 ], [ 72.934834427000055, 19.066561227000022 ], [ 72.93430021100005, 19.067270867000047 ], [ 72.934096236000073, 19.068194660000074 ], [ 72.93405423300004, 19.068639834000066 ], [ 72.934077228000035, 19.069089384000051 ], [ 72.933936539000058, 19.069564031000027 ], [ 72.933726191000062, 19.069833837000033 ], [ 72.932812006000063, 19.070469394000042 ], [ 72.93223776800005, 19.070789436000041 ], [ 72.931840433000048, 19.07207728700007 ], [ 72.931769336000059, 19.072545767000065 ], [ 72.931649693000054, 19.072819626000069 ], [ 72.930767680000031, 19.073737450000067 ], [ 72.929693368000073, 19.074586898000064 ], [ 72.927823748000037, 19.075087942000039 ], [ 72.926916362000043, 19.074993992000032 ], [ 72.92578922000007, 19.074551080000049 ], [ 72.924911867000048, 19.074036141000022 ], [ 72.924197463000041, 19.07398190300006 ], [ 72.923536913000078, 19.07430221900006 ], [ 72.923032645000035, 19.074349230000053 ], [ 72.922659336000038, 19.074046998000028 ], [ 72.921849145000067, 19.073018967000053 ], [ 72.92082881400006, 19.073628353000061 ], [ 72.922061151000037, 19.074933047000059 ], [ 72.92131134300007, 19.075174910000044 ], [ 72.920856216000061, 19.075351330000046 ], [ 72.920085938000057, 19.075833189000036 ], [ 72.918958329000077, 19.076439381000057 ], [ 72.918611043000055, 19.07676424400006 ], [ 72.917994113000077, 19.07767745700005 ], [ 72.917938954000078, 19.078052655000022 ], [ 72.917787245000056, 19.07852716900004 ], [ 72.917817183000068, 19.079029296000044 ], [ 72.917504866000058, 19.079585017000056 ], [ 72.918825997000056, 19.081191720000049 ], [ 72.920727655000064, 19.083479781000051 ], [ 72.92103316500004, 19.083543201000055 ], [ 72.921340179000083, 19.082937479000066 ], [ 72.922525699000062, 19.082011111000043 ], [ 72.921715655000071, 19.081031949000078 ], [ 72.921660380000048, 19.080742294000061 ], [ 72.922181523000063, 19.080244090000065 ], [ 72.922631288000048, 19.080021176000059 ], [ 72.923113428000079, 19.080398492000029 ], [ 72.923483195000074, 19.080092523000076 ], [ 72.924097434000032, 19.08078481900003 ], [ 72.926251044000082, 19.079125222000073 ], [ 72.92802260600007, 19.078804749000028 ], [ 72.928915018000055, 19.078781237000044 ], [ 72.928944903000058, 19.077687153000056 ], [ 72.92818864000003, 19.077067601000067 ], [ 72.928948001000037, 19.076380736000033 ], [ 72.929832239000064, 19.076047498000037 ], [ 72.930931099000077, 19.075060534000045 ], [ 72.936045400000069, 19.080207509000047 ], [ 72.934023294000042, 19.081828104000067 ], [ 72.931127295000067, 19.079037924000033 ], [ 72.930146877000084, 19.079983103000075 ], [ 72.928991864000068, 19.079022710000061 ], [ 72.928508141000066, 19.078906881000023 ], [ 72.926343831000054, 19.07927584600003 ], [ 72.921467810000081, 19.083005803000049 ], [ 72.921029092000083, 19.083848181000064 ], [ 72.923958328000083, 19.087516181000069 ], [ 72.924864416000048, 19.089864273000046 ], [ 72.925963897000031, 19.092311152000036 ], [ 72.927353606000054, 19.095570743000053 ], [ 72.929135329000076, 19.099990327000057 ] ] ] ] } }
]
}
