{
"type": "FeatureCollection",
"name": "ne_10m_coastline_aoi",
"crs": { "type": "name", "properties": { "name": "urn:ogc:def:crs:OGC:1.3:CRS84" } },
"features": [
{ "type": "Feature", "properties": { "featurecla": "Coastline", "scalerank": 0, "min_zoom": 0.0, "source": "Natural Earth 10m Physical Coastline", "source_year": 2024, "layer_note": "BASE COASTLINE ONLY — sensitivity classification is a later phase" }, "geometry": { "type": "MultiLineString", "coordinates": [ [ [ 67.519230769230774, 24.05945782199953 ], [ 67.533050977000073, 24.070257880000042 ], [ 67.529795769000032, 24.054917710000041 ], [ 67.519867384000065, 24.045070705000057 ], [ 67.519230769230774, 24.044678437975612 ] ], [ [ 67.519230769230774, 23.927993338215984 ], [ 67.519867384000065, 23.928290106000077 ], [ 67.53052819100003, 23.935492255000042 ], [ 67.540537957000083, 23.939276434000078 ], [ 67.532237175000034, 23.92914459800005 ], [ 67.520518425000034, 23.907049872000073 ], [ 67.519230769230774, 23.905630822630098 ] ], [ [ 67.519230769230774, 23.876978227291449 ], [ 67.546641472000033, 23.870998440000051 ], [ 67.535899285000085, 23.880031643000052 ], [ 67.530121290000068, 23.89126211100006 ], [ 67.53256269600007, 23.89915599200009 ], [ 67.546641472000033, 23.898260809000078 ], [ 67.558116082000083, 23.888657945000091 ], [ 67.56609134200005, 23.876450914000088 ], [ 67.574554884000065, 23.871771552000041 ], [ 67.588389519000032, 23.884670315000051 ], [ 67.589366082000083, 23.866522528000075 ], [ 67.599619988000086, 23.85423411700009 ], [ 67.61451256600003, 23.850083726000037 ], [ 67.629242384000065, 23.856675523000035 ], [ 67.637380405000044, 23.874253648000035 ], [ 67.63803144600007, 23.915920315000051 ], [ 67.650401238000086, 23.93305084800005 ], [ 67.651215040000068, 23.929754950000074 ], [ 67.651052280000044, 23.926906643000052 ], [ 67.65202884200005, 23.925279039000088 ], [ 67.656586134000065, 23.925604559000078 ], [ 67.656586134000065, 23.91937897300005 ], [ 67.651052280000044, 23.907049872000073 ], [ 67.642914259000065, 23.850490627000056 ], [ 67.638845248000052, 23.840643622000073 ], [ 67.634287957000083, 23.833075262000079 ], [ 67.630707227000073, 23.824774481000077 ], [ 67.629242384000065, 23.812648830000057 ], [ 67.631602410000085, 23.80345286700009 ], [ 67.637705925000034, 23.801743882000039 ], [ 67.646494988000086, 23.802883205000057 ], [ 67.656586134000065, 23.802069403000075 ], [ 67.693614129000082, 23.793443101000037 ], [ 67.715668165000068, 23.791693427000041 ], [ 67.732269727000073, 23.79523346600007 ], [ 67.743662957000083, 23.808783270000049 ], [ 67.741058790000068, 23.823065497000073 ], [ 67.730723504000082, 23.835598049000055 ], [ 67.718597852000073, 23.843695380000042 ], [ 67.773203972000033, 23.821112372000073 ], [ 67.802582227000073, 23.81281159100007 ], [ 67.83171634200005, 23.809515692000048 ], [ 67.839040561000047, 23.823391018000052 ], [ 67.849131707000083, 23.889471747000073 ], [ 67.855235222000033, 23.911932684000078 ], [ 67.863291863000086, 23.902818101000037 ], [ 67.86451256600003, 23.865790106000077 ], [ 67.868907097000033, 23.850490627000056 ], [ 67.883474155000044, 23.864813544000071 ], [ 67.89193769600007, 23.869574286000045 ], [ 67.899912957000083, 23.867580471000053 ], [ 67.90593509200005, 23.859279690000051 ], [ 67.904633009000065, 23.846258856000077 ], [ 67.909922722000033, 23.83624909100007 ], [ 67.916758660000085, 23.833644924000055 ], [ 67.926036004000082, 23.834051825000074 ], [ 67.934255405000044, 23.832993882000039 ], [ 67.937754754000082, 23.826320705000057 ], [ 67.941661004000082, 23.81586334800005 ], [ 67.95085696700005, 23.80890534100007 ], [ 67.961924675000034, 23.804673570000091 ], [ 67.97193444100003, 23.802069403000075 ], [ 67.973399285000085, 23.805243231000077 ], [ 67.983164910000085, 23.809637762000079 ], [ 67.994151238000086, 23.81118398600006 ], [ 67.99927819100003, 23.805812893000052 ], [ 68.000336134000065, 23.797308661000045 ], [ 68.003428582000083, 23.785305080000057 ], [ 68.007985873000052, 23.774237372000073 ], [ 68.013519727000073, 23.768540757000039 ], [ 68.024424675000034, 23.774603583000044 ], [ 68.035655144000032, 23.79242584800005 ], [ 68.053884311000047, 23.829413153000075 ], [ 68.041514519000032, 23.852240302000041 ], [ 68.013519727000073, 23.939276434000078 ], [ 68.024180535000085, 23.935248114000046 ], [ 68.047699415000068, 23.921210028000075 ], [ 68.06373131600003, 23.923163153000075 ], [ 68.061696811000047, 23.911281643000052 ], [ 68.053884311000047, 23.884670315000051 ], [ 68.059418165000068, 23.861883856000077 ], [ 68.072520379000082, 23.841864325000074 ], [ 68.088389519000032, 23.826076565000051 ], [ 68.102224155000044, 23.815741278000075 ], [ 68.102224155000044, 23.809515692000048 ], [ 68.088226759000065, 23.809515692000048 ], [ 68.08171634200005, 23.805650132000039 ], [ 68.074392123000052, 23.788397528000075 ], [ 68.073252800000034, 23.783433335000041 ], [ 68.074392123000052, 23.764837958000044 ], [ 68.071055535000085, 23.760646877000056 ], [ 68.056976759000065, 23.750962632000039 ], [ 68.053884311000047, 23.743719794000071 ], [ 68.062754754000082, 23.723130601000037 ], [ 68.08171634200005, 23.708685614000046 ], [ 68.09888756600003, 23.70929596600007 ], [ 68.102224155000044, 23.73383209800005 ], [ 68.130381707000083, 23.708197333000044 ], [ 68.149099155000044, 23.694525458000044 ], [ 68.15748131600003, 23.696234442000048 ], [ 68.154795769000032, 23.71430084800005 ], [ 68.14421634200005, 23.743150132000039 ], [ 68.143321160000085, 23.761135158000059 ], [ 68.148692254000082, 23.780910549000055 ], [ 68.166758660000085, 23.820013739000046 ], [ 68.170583530000044, 23.839911200000074 ], [ 68.168711785000085, 23.844794012000079 ], [ 68.160166863000086, 23.857855536000045 ], [ 68.15748131600003, 23.864162502000056 ], [ 68.156423373000052, 23.874009507000039 ], [ 68.15748131600003, 23.905096747000073 ], [ 68.183116082000083, 23.843451239000046 ], [ 68.183034701000054, 23.84210846600007 ], [ 68.182465040000068, 23.835760809000078 ], [ 68.179698113000086, 23.827460028000075 ], [ 68.175629102000073, 23.798244533000059 ], [ 68.166026238000086, 23.773179429000038 ], [ 68.16374759200005, 23.757717190000051 ], [ 68.168142123000052, 23.747463283000059 ], [ 68.178233269000032, 23.754299221000053 ], [ 68.197764519000032, 23.774807033000059 ], [ 68.197927280000044, 23.753404039000088 ], [ 68.195811394000032, 23.733465887000079 ], [ 68.197520379000082, 23.714544989000046 ], [ 68.208750847000033, 23.696234442000048 ], [ 68.224864129000082, 23.681870835000041 ], [ 68.240977410000085, 23.674017645000049 ], [ 68.258962436000047, 23.674709377000056 ], [ 68.280446811000047, 23.685980536000045 ], [ 68.275889519000032, 23.665838934000078 ], [ 68.261892123000052, 23.661444403000075 ], [ 68.245127800000034, 23.659125067000048 ], [ 68.232676629000082, 23.645005601000037 ], [ 68.22006269600007, 23.659247137000079 ], [ 68.209320509000065, 23.66274648600006 ], [ 68.198090040000068, 23.659084377000056 ], [ 68.184255405000044, 23.651922919000071 ], [ 68.181895379000082, 23.647853908000059 ], [ 68.178233269000032, 23.634344794000071 ], [ 68.174327019000032, 23.631415106000077 ], [ 68.154144727000073, 23.632310289000088 ], [ 68.15007571700005, 23.631415106000077 ], [ 68.143402540000068, 23.612697658000059 ], [ 68.157399936000047, 23.600816148000035 ], [ 68.181407097000033, 23.59406159100007 ], [ 68.230804884000065, 23.588080145000049 ], [ 68.294118686000047, 23.590399481000077 ], [ 68.308116082000083, 23.589056708000044 ], [ 68.31763756600003, 23.586127020000049 ], [ 68.327321811000047, 23.586900132000039 ], [ 68.341970248000052, 23.596625067000048 ], [ 68.34888756600003, 23.603420315000051 ], [ 68.353037957000083, 23.610663153000075 ], [ 68.351573113000086, 23.61782461100006 ], [ 68.341970248000052, 23.623968817000048 ], [ 68.410817905000044, 23.700506903000075 ], [ 68.427744988000086, 23.71430084800005 ], [ 68.449717644000032, 23.723334052000041 ], [ 68.472829623000052, 23.737494208000044 ], [ 68.510020379000082, 23.744086005000042 ], [ 68.52475019600007, 23.752020575000074 ], [ 68.53834069100003, 23.761297919000071 ], [ 68.554698113000086, 23.768540757000039 ], [ 68.587738477000073, 23.77570221600007 ], [ 68.59888756600003, 23.78188711100006 ], [ 68.609385613000086, 23.79523346600007 ], [ 68.623057488000086, 23.824408270000049 ], [ 68.633474155000044, 23.833075262000079 ], [ 68.654063347000033, 23.83624909100007 ], [ 68.691905144000032, 23.83665599200009 ], [ 68.717784050000034, 23.841009833000044 ], [ 68.740244988000086, 23.853461005000042 ], [ 68.76693769600007, 23.878404039000088 ], [ 68.780039910000085, 23.874090887000079 ], [ 68.805674675000034, 23.884426174000055 ], [ 68.82162519600007, 23.878404039000088 ], [ 68.76880944100003, 23.841131903000075 ], [ 68.756521030000044, 23.83624909100007 ], [ 68.745127800000034, 23.833075262000079 ], [ 68.725596550000034, 23.818915106000077 ], [ 68.715586785000085, 23.815741278000075 ], [ 68.680186394000032, 23.817775783000059 ], [ 68.670746290000068, 23.815741278000075 ], [ 68.654551629000082, 23.799058335000041 ], [ 68.637868686000047, 23.761542059000078 ], [ 68.601735873000052, 23.74868398600006 ], [ 68.583506707000083, 23.735296942000048 ], [ 68.554698113000086, 23.70648834800005 ], [ 68.538828972000033, 23.684027411000045 ], [ 68.533539259000065, 23.679185289000088 ], [ 68.523936394000032, 23.675930080000057 ], [ 68.504730665000068, 23.674221096000053 ], [ 68.488942905000044, 23.66478099200009 ], [ 68.469411655000044, 23.659247137000079 ], [ 68.465505405000044, 23.655259507000039 ], [ 68.468760613000086, 23.640814520000049 ], [ 68.476898634000065, 23.639349677000041 ], [ 68.486175977000073, 23.641424872000073 ], [ 68.492686394000032, 23.637600002000056 ], [ 68.49146569100003, 23.618841864000046 ], [ 68.471527540000068, 23.618638414000088 ], [ 68.427500847000033, 23.631415106000077 ], [ 68.408864780000044, 23.621323960000041 ], [ 68.404958530000044, 23.597601630000042 ], [ 68.410817905000044, 23.548814195000091 ], [ 68.406097852000073, 23.508734442000048 ], [ 68.411631707000083, 23.494696356000077 ], [ 68.431162957000083, 23.49359772300005 ], [ 68.44695071700005, 23.502997137000079 ], [ 68.447438998000052, 23.51634349200009 ], [ 68.441416863000086, 23.532049872000073 ], [ 68.437347852000073, 23.548814195000091 ], [ 68.444021030000044, 23.541205145000049 ], [ 68.454112175000034, 23.526271877000056 ], [ 68.45866946700005, 23.521470445000091 ], [ 68.46802819100003, 23.51984284100007 ], [ 68.475596550000034, 23.524115302000041 ], [ 68.481293165000068, 23.525132554000038 ], [ 68.485850457000083, 23.514105536000045 ], [ 68.465586785000085, 23.505275783000059 ], [ 68.447438998000052, 23.487453518000052 ], [ 68.43295332100007, 23.465887762000079 ], [ 68.423675977000073, 23.445786851000037 ], [ 68.43091881600003, 23.436590887000079 ], [ 68.440440300000034, 23.434271552000041 ], [ 68.451914910000085, 23.437730210000041 ], [ 68.465505405000044, 23.445786851000037 ], [ 68.461110873000052, 23.433172919000071 ], [ 68.458832227000073, 23.419826565000051 ], [ 68.46257571700005, 23.409125067000048 ], [ 68.475352410000085, 23.404852606000077 ], [ 68.490489129000082, 23.409328518000052 ], [ 68.496429884000065, 23.417873440000051 ], [ 68.501475457000083, 23.42328522300005 ], [ 68.513194207000083, 23.418524481000077 ], [ 68.522146030000044, 23.424750067000048 ], [ 68.530121290000068, 23.425685940000051 ], [ 68.53638756600003, 23.42133209800005 ], [ 68.541026238000086, 23.411688544000071 ], [ 68.529551629000082, 23.411932684000078 ], [ 68.52076256600003, 23.407538153000075 ], [ 68.515147332000083, 23.399318752000056 ], [ 68.513194207000083, 23.388088283000059 ], [ 68.515147332000083, 23.377020575000074 ], [ 68.520681186000047, 23.369208075000074 ], [ 68.529470248000052, 23.363104559000078 ], [ 68.541026238000086, 23.357001044000071 ], [ 68.543142123000052, 23.358587958000044 ], [ 68.54851321700005, 23.361517645000049 ], [ 68.555186394000032, 23.363959052000041 ], [ 68.561045769000032, 23.36391836100006 ], [ 68.56373131600003, 23.359930731000077 ], [ 68.566661004000082, 23.35297272300005 ], [ 68.571055535000085, 23.346380927000041 ], [ 68.578379754000082, 23.343410549000055 ], [ 68.592051629000082, 23.340073960000041 ], [ 68.603037957000083, 23.332831122000073 ], [ 68.606944207000083, 23.325588283000059 ], [ 68.599131707000083, 23.322251695000091 ], [ 68.568532748000052, 23.318426825000074 ], [ 68.561045769000032, 23.316107489000046 ], [ 68.541026238000086, 23.278225002000056 ], [ 68.552256707000083, 23.259711005000042 ], [ 68.57781009200005, 23.255275783000059 ], [ 68.605316602000073, 23.259588934000078 ], [ 68.623057488000086, 23.267645575000074 ], [ 68.623220248000052, 23.25617096600007 ], [ 68.620127800000034, 23.245428778000075 ], [ 68.609385613000086, 23.226711330000057 ], [ 68.598317905000044, 23.23696523600006 ], [ 68.595713738000086, 23.240383205000057 ], [ 68.599945509000065, 23.225043036000045 ], [ 68.609141472000033, 23.206773179000038 ], [ 68.622569207000083, 23.191555080000057 ], [ 68.64966881600003, 23.180853583000044 ], [ 68.651133660000085, 23.171454169000071 ], [ 68.650645379000082, 23.162054755000042 ], [ 68.654063347000033, 23.157782294000071 ], [ 68.660655144000032, 23.154242255000042 ], [ 68.691254102000073, 23.130519924000055 ], [ 68.866221550000034, 23.019964911000045 ], [ 69.039886915000068, 22.950506903000075 ], [ 69.135590040000068, 22.888373114000046 ], [ 69.201914910000085, 22.852240302000041 ], [ 69.238780144000032, 22.841945705000057 ], [ 69.338145379000082, 22.833075262000079 ], [ 69.372569207000083, 22.81899648600006 ], [ 69.40593509200005, 22.813666083000044 ], [ 69.424652540000068, 22.804266669000071 ], [ 69.472178582000083, 22.794663804000038 ], [ 69.477305535000085, 22.792059637000079 ], [ 69.482595248000052, 22.788478908000059 ], [ 69.489431186000047, 22.784735419000071 ], [ 69.500010613000086, 22.781683661000045 ], [ 69.510752800000034, 22.780503648000035 ], [ 69.544444207000083, 22.781683661000045 ], [ 69.556976759000065, 22.778509833000044 ], [ 69.575694207000083, 22.764349677000041 ], [ 69.585703972000033, 22.76117584800005 ], [ 69.653819207000083, 22.76048411700009 ], [ 69.694346550000034, 22.749701239000046 ], [ 69.715830925000034, 22.746893622000073 ], [ 69.728851759000065, 22.754828192000048 ], [ 69.760101759000065, 22.808335679000038 ], [ 69.780121290000068, 22.827460028000075 ], [ 69.806813998000052, 22.845282294000071 ], [ 69.833181186000047, 22.858465887000079 ], [ 69.85287519600007, 22.86359284100007 ], [ 69.884287957000083, 22.86782461100006 ], [ 69.94068444100003, 22.886135158000059 ], [ 69.996918165000068, 22.893784898000035 ], [ 70.06177819100003, 22.918198960000041 ], [ 70.120127800000034, 22.925034898000035 ], [ 70.135427280000044, 22.92999909100007 ], [ 70.132334832000083, 22.941066799000055 ], [ 70.12045332100007, 22.95258209800005 ], [ 70.109548373000052, 22.959173895000049 ], [ 70.130625847000033, 22.993963934000078 ], [ 70.12623131600003, 22.984808661000045 ], [ 70.125010613000086, 22.975978908000059 ], [ 70.129079623000052, 22.969305731000077 ], [ 70.140635613000086, 22.966620184000078 ], [ 70.147471550000034, 22.966050523000035 ], [ 70.14966881600003, 22.96430084800005 ], [ 70.150726759000065, 22.961004950000074 ], [ 70.154307488000086, 22.956040757000039 ], [ 70.163096550000034, 22.948960679000038 ], [ 70.167735222000033, 22.949123440000051 ], [ 70.171722852000073, 22.951971747000073 ], [ 70.178477410000085, 22.953029690000051 ], [ 70.204112175000034, 22.952215887000079 ], [ 70.22201582100007, 22.959173895000049 ], [ 70.231944207000083, 22.97492096600007 ], [ 70.233083530000044, 23.000148830000057 ], [ 70.24968509200005, 22.987453518000052 ], [ 70.258311394000032, 22.971869208000044 ], [ 70.269297722000033, 22.958563544000071 ], [ 70.291758660000085, 22.953029690000051 ], [ 70.293630405000044, 22.951402085000041 ], [ 70.30005944100003, 22.944281317000048 ], [ 70.303477410000085, 22.93813711100006 ], [ 70.308767123000052, 22.93976471600007 ], [ 70.314626498000052, 22.943508205000057 ], [ 70.319102410000085, 22.945502020000049 ], [ 70.325694207000083, 22.945013739000046 ], [ 70.330414259000065, 22.943304755000042 ], [ 70.334483269000032, 22.940130927000041 ], [ 70.33952884200005, 22.935288804000038 ], [ 70.346690300000034, 22.931301174000055 ], [ 70.352386915000068, 22.93305084800005 ], [ 70.357676629000082, 22.936712958000044 ], [ 70.363536004000082, 22.938706773000035 ], [ 70.384532097000033, 22.938869533000059 ], [ 70.392425977000073, 22.94086334800005 ], [ 70.398773634000065, 22.945502020000049 ], [ 70.40162194100003, 22.95384349200009 ], [ 70.403493686000047, 22.967840887000079 ], [ 70.403819207000083, 22.98187897300005 ], [ 70.40202884200005, 22.990220445000091 ], [ 70.401866082000083, 22.999253648000035 ], [ 70.410980665000068, 23.023179429000038 ], [ 70.404470248000052, 23.033351955000057 ], [ 70.401052280000044, 23.045396226000037 ], [ 70.398936394000032, 23.059068101000037 ], [ 70.398773634000065, 23.069037177000041 ], [ 70.410655144000032, 23.086004950000074 ], [ 70.450938347000033, 23.105658270000049 ], [ 70.459646030000044, 23.11399974200009 ], [ 70.467133009000065, 23.129706122000073 ], [ 70.484222852000073, 23.122137762000079 ], [ 70.502940300000034, 23.104396877000056 ], [ 70.51490319100003, 23.089544989000046 ], [ 70.523692254000082, 23.070379950000074 ], [ 70.528493686000047, 23.047064520000049 ], [ 70.527191602000073, 23.023586330000057 ], [ 70.517914259000065, 23.003892320000091 ], [ 70.512380405000044, 22.995347398000035 ], [ 70.504730665000068, 22.979559637000079 ], [ 70.497569207000083, 22.970038153000075 ], [ 70.486338738000086, 22.963690497000073 ], [ 70.47429446700005, 22.964056708000044 ], [ 70.462738477000073, 22.966538804000038 ], [ 70.453379754000082, 22.966620184000078 ], [ 70.43685957100007, 22.954901434000078 ], [ 70.404633009000065, 22.919501044000071 ], [ 70.387705925000034, 22.912014065000051 ], [ 70.375254754000082, 22.90265534100007 ], [ 70.342946811000047, 22.843166408000059 ], [ 70.32545006600003, 22.826320705000057 ], [ 70.322520379000082, 22.822658596000053 ], [ 70.32154381600003, 22.811712958000044 ], [ 70.323252800000034, 22.787665106000077 ], [ 70.319102410000085, 22.778265692000048 ], [ 70.26726321700005, 22.705959377000056 ], [ 70.234873894000032, 22.648871161000045 ], [ 70.207286004000082, 22.614976304000038 ], [ 70.189707879000082, 22.577785549000055 ], [ 70.178477410000085, 22.56195709800005 ], [ 70.144704623000052, 22.547796942000048 ], [ 70.059092644000032, 22.558417059000078 ], [ 70.02084394600007, 22.555121161000045 ], [ 70.002696160000085, 22.543158270000049 ], [ 69.996267123000052, 22.541449286000045 ], [ 69.97388756600003, 22.539984442000048 ], [ 69.972992384000065, 22.541449286000045 ], [ 69.962087436000047, 22.535345770000049 ], [ 69.905284050000034, 22.486395575000074 ], [ 69.884776238000086, 22.473578192000048 ], [ 69.863780144000032, 22.465765692000048 ], [ 69.851084832000083, 22.465236721000053 ], [ 69.841807488000086, 22.466376044000071 ], [ 69.83326256600003, 22.463812567000048 ], [ 69.822276238000086, 22.452093817000048 ], [ 69.816905144000032, 22.440985419000071 ], [ 69.812998894000032, 22.429510809000078 ], [ 69.806976759000065, 22.420965887000079 ], [ 69.794932488000086, 22.41860586100006 ], [ 69.78874759200005, 22.423163153000075 ], [ 69.742198113000086, 22.47296784100007 ], [ 69.733409050000034, 22.480047919000071 ], [ 69.725352410000085, 22.464544989000046 ], [ 69.708994988000086, 22.418890692000048 ], [ 69.699392123000052, 22.404282945000091 ], [ 69.694509311000047, 22.403957424000055 ], [ 69.680837436000047, 22.40961334800005 ], [ 69.674652540000068, 22.411078192000048 ], [ 69.669444207000083, 22.409247137000079 ], [ 69.665212436000047, 22.404974677000041 ], [ 69.661306186000047, 22.400213934000078 ], [ 69.657725457000083, 22.396877346000053 ], [ 69.652354363000086, 22.389878648000035 ], [ 69.647227410000085, 22.380438544000071 ], [ 69.640391472000033, 22.375962632000039 ], [ 69.629730665000068, 22.383775132000039 ], [ 69.619883660000085, 22.371039130000042 ], [ 69.617442254000082, 22.365057684000078 ], [ 69.616058790000068, 22.355902411000045 ], [ 69.601084832000083, 22.363836981000077 ], [ 69.569021030000044, 22.37055084800005 ], [ 69.554698113000086, 22.377630927000041 ], [ 69.561696811000047, 22.391587632000039 ], [ 69.55982506600003, 22.411525783000059 ], [ 69.547862175000034, 22.452093817000048 ], [ 69.541026238000086, 22.452093817000048 ], [ 69.530772332000083, 22.446112372000073 ], [ 69.521983269000032, 22.448919989000046 ], [ 69.515961134000065, 22.448146877000056 ], [ 69.513682488000086, 22.431586005000042 ], [ 69.51693769600007, 22.416083075000074 ], [ 69.52279707100007, 22.403876044000071 ], [ 69.525645379000082, 22.392075914000088 ], [ 69.519867384000065, 22.377630927000041 ], [ 69.515147332000083, 22.375189520000049 ], [ 69.508555535000085, 22.374253648000035 ], [ 69.502696160000085, 22.372259833000044 ], [ 69.500010613000086, 22.366766669000071 ], [ 69.485362175000034, 22.347560940000051 ], [ 69.479665561000047, 22.342230536000045 ], [ 69.468923373000052, 22.337836005000042 ], [ 69.435394727000073, 22.33038971600007 ], [ 69.359873894000032, 22.329169012000079 ], [ 69.346446160000085, 22.324896552000041 ], [ 69.335703972000033, 22.306138414000088 ], [ 69.28646894600007, 22.28461334800005 ], [ 69.212087436000047, 22.273911851000037 ], [ 69.212087436000047, 22.281398830000057 ], [ 69.190440300000034, 22.292303778000075 ], [ 69.173838738000086, 22.308294989000046 ], [ 69.169688347000033, 22.327948309000078 ], [ 69.185313347000033, 22.349676825000074 ], [ 69.182139519000032, 22.366441148000035 ], [ 69.205739780000044, 22.398667710000041 ], [ 69.202159050000034, 22.414862372000073 ], [ 69.188243035000085, 22.42641836100006 ], [ 69.178558790000068, 22.427639065000051 ], [ 69.168793165000068, 22.42064036700009 ], [ 69.154633009000065, 22.407700914000088 ], [ 69.146983269000032, 22.404852606000077 ], [ 69.139821811000047, 22.407131252000056 ], [ 69.132009311000047, 22.41046784100007 ], [ 69.12273196700005, 22.411078192000048 ], [ 69.113780144000032, 22.407863674000055 ], [ 69.097422722000033, 22.398871161000045 ], [ 69.088552280000044, 22.396877346000053 ], [ 69.071787957000083, 22.399481512000079 ], [ 69.062266472000033, 22.407700914000088 ], [ 69.04818769600007, 22.431586005000042 ], [ 69.05600019600007, 22.441839911000045 ], [ 69.074473504000082, 22.449448960000041 ], [ 69.082286004000082, 22.459540106000077 ], [ 69.08521569100003, 22.472886460000041 ], [ 69.08139082100007, 22.480536200000074 ], [ 69.07357832100007, 22.48187897300005 ], [ 69.047536655000044, 22.464016018000052 ], [ 69.00749759200005, 22.443182684000078 ], [ 68.992930535000085, 22.431586005000042 ], [ 68.983246290000068, 22.41937897300005 ], [ 68.974375847000033, 22.404730536000045 ], [ 68.967621290000068, 22.387193101000037 ], [ 68.965017123000052, 22.366766669000071 ], [ 68.96062259200005, 22.349514065000051 ], [ 68.951426629000082, 22.334865627000056 ], [ 68.944021030000044, 22.318264065000051 ], [ 68.94459069100003, 22.295070705000057 ], [ 68.953298373000052, 22.27602773600006 ], [ 68.980479363000086, 22.235541083000044 ], [ 68.994151238000086, 22.203924872000073 ], [ 69.012543165000068, 22.185614325000074 ], [ 69.04818769600007, 22.157904364000046 ], [ 69.092051629000082, 22.099595445000091 ], [ 69.103037957000083, 22.076361395000049 ], [ 69.119313998000052, 22.062079169000071 ], [ 69.150645379000082, 22.041205145000049 ], [ 69.198415561000047, 21.979722398000035 ], [ 69.21225019600007, 21.967474677000041 ], [ 69.243907097000033, 21.94594961100006 ], [ 69.336192254000082, 21.862453518000052 ], [ 69.355479363000086, 21.853176174000055 ], [ 69.367849155000044, 21.85610586100006 ], [ 69.390879754000082, 21.876695054000038 ], [ 69.395192905000044, 21.861314195000091 ], [ 69.391774936000047, 21.832180080000057 ], [ 69.39771569100003, 21.815252997000073 ], [ 69.42741946700005, 21.781236070000091 ], [ 69.446299675000034, 21.766302802000041 ], [ 69.478526238000086, 21.752630927000041 ], [ 69.49935957100007, 21.720200914000088 ], [ 69.519786004000082, 21.704779364000046 ], [ 69.552744988000086, 21.665187893000052 ], [ 69.568207227000073, 21.650132554000038 ], [ 69.629730665000068, 21.616034247000073 ], [ 69.756358269000032, 21.490423895000049 ], [ 69.771494988000086, 21.478420315000051 ], [ 69.78874759200005, 21.469305731000077 ], [ 69.808604363000086, 21.465806382000039 ], [ 69.814707879000082, 21.433661200000074 ], [ 69.84498131600003, 21.389593817000048 ], [ 69.911631707000083, 21.315008856000077 ], [ 69.95826256600003, 21.273342190000051 ], [ 69.96615644600007, 21.263413804000038 ], [ 69.968019438167545, 21.258054563611609 ], [ 70.054445219167548, 21.153155475611641 ], [ 70.152191602000073, 21.078517971000053 ], [ 70.263519727000073, 20.980414130000042 ], [ 70.299978061000047, 20.958563544000071 ], [ 70.336680535000085, 20.927069403000075 ], [ 70.398773634000065, 20.903509833000044 ], [ 70.417002800000034, 20.890448309000078 ], [ 70.451426629000082, 20.855902411000045 ], [ 70.463063998000052, 20.848863023000035 ], [ 70.484141472000033, 20.843939520000049 ], [ 70.541514519000032, 20.807847398000035 ], [ 70.562174155297853, 20.799766947861755 ], [ 70.69857832100007, 20.74640534100007 ], [ 70.730804884000065, 20.723211981000077 ], [ 70.740244988000086, 20.718491929000038 ], [ 70.75163821700005, 20.719631252000056 ], [ 70.763194207000083, 20.724554755000042 ], [ 70.774587436000047, 20.727362372000073 ], [ 70.785166863000086, 20.722154039000088 ], [ 70.801605665000068, 20.709051825000074 ], [ 70.81967207100007, 20.702948309000078 ], [ 70.840179884000065, 20.70189036700009 ], [ 70.902531142326112, 20.70551993138298 ], [ 70.972992384000065, 20.70962148600006 ], [ 70.982432488000086, 20.710150458000044 ], [ 71.000824415000068, 20.722154039000088 ], [ 71.005951368000069, 20.736558335000041 ], [ 71.007660352000073, 20.741603908000059 ], [ 71.024180535000085, 20.744533596000053 ], [ 71.044444207000083, 20.74054596600007 ], [ 71.062347852000073, 20.738959052000041 ], [ 71.072601759000065, 20.745672919000071 ], [ 71.08326256600003, 20.756537177000041 ], [ 71.095469597000033, 20.763739325000074 ], [ 71.110118035000085, 20.759466864000046 ], [ 71.116953972000033, 20.766913153000075 ], [ 71.140635613000086, 20.765692450000074 ], [ 71.318614129000082, 20.849310614000046 ], [ 71.378103061000047, 20.859442450000074 ], [ 71.46225019600007, 20.885321356000077 ], [ 71.480723504000082, 20.900376695000091 ], [ 71.484385613000086, 20.917141018000052 ], [ 71.49341881600003, 20.92914459800005 ], [ 71.53679446700005, 20.96430084800005 ], [ 71.551117384000065, 20.973578192000048 ], [ 71.569346550000034, 20.979193427000041 ], [ 71.562347852000073, 20.97296784100007 ], [ 71.557302280000044, 20.966009833000044 ], [ 71.549571160000085, 20.951239325000074 ], [ 71.583506707000083, 20.958238023000035 ], [ 71.63998457100007, 20.99681224200009 ], [ 71.683360222000033, 21.011460679000038 ], [ 71.699743378372389, 21.021306493560147 ], [ 71.717621290000068, 21.032049872000073 ], [ 71.730235222000033, 21.03070709800005 ], [ 71.743662957000083, 21.027573960000041 ], [ 71.76295006600003, 21.032294012000079 ], [ 71.788584832000083, 21.04751211100006 ], [ 71.806162957000083, 21.062079169000071 ], [ 71.926280144000032, 21.130031643000052 ], [ 71.972422722000033, 21.13226959800005 ], [ 71.990733269000032, 21.136379299000055 ], [ 72.055023634000065, 21.168361721000053 ], [ 72.062836134000065, 21.174709377000056 ], [ 72.066661004000082, 21.181341864000046 ], [ 72.07545006600003, 21.185695705000057 ], [ 72.084808790000068, 21.188706773000035 ], [ 72.090830925000034, 21.191473700000074 ], [ 72.10474694100003, 21.205064195000091 ], [ 72.104502800000034, 21.222154039000088 ], [ 72.093516472000033, 21.243557033000059 ], [ 72.090830925000034, 21.252915757000039 ], [ 72.093597852000073, 21.258205471000053 ], [ 72.099375847000033, 21.264960028000075 ], [ 72.102549675000034, 21.274400132000039 ], [ 72.09701582100007, 21.287665106000077 ], [ 72.107758009000065, 21.289984442000048 ], [ 72.111501498000052, 21.296087958000044 ], [ 72.110036655000044, 21.304836330000057 ], [ 72.104502800000034, 21.315008856000077 ], [ 72.116058790000068, 21.322739976000037 ], [ 72.15162194100003, 21.360174872000073 ], [ 72.159190300000034, 21.373277085000041 ], [ 72.166840040000068, 21.392075914000088 ], [ 72.219899936000047, 21.444728908000059 ], [ 72.242198113000029, 21.48078034100007 ], [ 72.275157097000033, 21.595526434000078 ], [ 72.279144727000073, 21.600531317000048 ], [ 72.292002800000034, 21.611761786000045 ], [ 72.295664910000085, 21.616034247000073 ], [ 72.298838738000029, 21.626288153000075 ], [ 72.29851321700005, 21.633978583000044 ], [ 72.296641472000033, 21.642157294000071 ], [ 72.295664910000085, 21.653876044000071 ], [ 72.292491082000083, 21.659491278000075 ], [ 72.285411004000082, 21.665025132000039 ], [ 72.278330925000034, 21.671942450000074 ], [ 72.271739129000082, 21.690904039000088 ], [ 72.26303144600007, 21.692328192000048 ], [ 72.251800977000073, 21.690904039000088 ], [ 72.240407748000052, 21.69171784100007 ], [ 72.230235222000033, 21.695990302000041 ], [ 72.223806186000047, 21.700588283000059 ], [ 72.219004754000082, 21.706000067000048 ], [ 72.214366082000083, 21.712836005000042 ], [ 72.20240319100003, 21.748114325000074 ], [ 72.200043165000068, 21.750067450000074 ], [ 72.195811394000032, 21.757798570000091 ], [ 72.17701256600003, 21.766669012000079 ], [ 72.172699415000068, 21.777736721000053 ], [ 72.171071811000047, 21.790961005000042 ], [ 72.166026238000029, 21.793931382000039 ], [ 72.117442254000082, 21.776597398000035 ], [ 72.10320071700005, 21.775213934000078 ], [ 72.087412957000083, 21.784491278000075 ], [ 72.07390384200005, 21.788723049000055 ], [ 72.054942254000082, 21.785589911000045 ], [ 72.021820509000065, 21.774318752000056 ], [ 72.022308790000068, 21.780910549000055 ], [ 72.021494988000029, 21.794419664000088 ], [ 72.021820509000065, 21.800970770000049 ], [ 72.009613477000073, 21.795599677000041 ], [ 72.005381707000083, 21.792954820000091 ], [ 72.001475457000083, 21.787909247000073 ], [ 71.996104363000029, 21.799505927000041 ], [ 71.994151238000029, 21.812201239000046 ], [ 71.994639519000032, 21.839504299000055 ], [ 71.99732506600003, 21.85492584800005 ], [ 72.004161004000082, 21.85773346600007 ], [ 72.062836134000065, 21.834377346000053 ], [ 72.086761915000068, 21.830267645000049 ], [ 72.104502800000034, 21.835760809000078 ], [ 72.086436394000032, 21.865627346000053 ], [ 72.080332879000082, 21.86985911700009 ], [ 72.071787957000083, 21.870794989000046 ], [ 72.061534050000034, 21.873114325000074 ], [ 72.052907748000052, 21.876532294000071 ], [ 72.049327019000032, 21.880438544000071 ], [ 72.05795332100007, 21.89874909100007 ], [ 72.077647332000083, 21.894435940000051 ], [ 72.098480665000068, 21.880519924000055 ], [ 72.111338738000029, 21.86985911700009 ], [ 72.123301629000082, 21.853745835000041 ], [ 72.130869988000029, 21.846258856000077 ], [ 72.161875847000033, 21.839178778000075 ], [ 72.169444207000083, 21.841376044000071 ], [ 72.162608269000032, 21.852850653000075 ], [ 72.160004102000073, 21.865912177000041 ], [ 72.16732832100007, 21.879136460000041 ], [ 72.169769727000073, 21.890448309000078 ], [ 72.152354363000029, 21.897853908000059 ], [ 72.159190300000034, 21.90460846600007 ], [ 72.145355665000068, 21.910834052000041 ], [ 72.145355665000068, 21.917669989000046 ], [ 72.156504754000082, 21.925848700000074 ], [ 72.142100457000083, 21.924994208000044 ], [ 72.104502800000034, 21.917669989000046 ], [ 72.08757571700005, 21.919663804000038 ], [ 72.02865644600007, 21.938788153000075 ], [ 72.03842207100007, 21.94757721600007 ], [ 72.055186394000032, 21.953517971000053 ], [ 72.073252800000034, 21.954494533000059 ], [ 72.087412957000083, 21.948431708000044 ], [ 72.096202019000032, 21.943019924000055 ], [ 72.102061394000032, 21.945054429000038 ], [ 72.10482832100007, 21.95148346600007 ], [ 72.104502800000034, 21.959214585000041 ], [ 72.082530144000032, 21.97337474200009 ], [ 72.076508009000065, 21.979722398000035 ], [ 72.11491946700005, 21.96938711100006 ], [ 72.124847852000073, 21.972316799000055 ], [ 72.128103061000047, 21.983547268000052 ], [ 72.119313998000052, 21.993638414000088 ], [ 72.09701582100007, 22.007025458000044 ], [ 72.113780144000032, 22.010565497000073 ], [ 72.134287957000083, 22.004584052000041 ], [ 72.15170332100007, 21.993882554000038 ], [ 72.159190300000034, 21.98314036700009 ], [ 72.16342207100007, 21.973211981000077 ], [ 72.17310631600003, 21.975653387000079 ], [ 72.182465040000068, 21.98273346600007 ], [ 72.186371290000068, 21.986558335000041 ], [ 72.191172722000033, 21.993638414000088 ], [ 72.195160352000073, 22.003648179000038 ], [ 72.199880405000044, 22.006984768000052 ], [ 72.20630944100003, 21.994045315000051 ], [ 72.214366082000083, 21.994045315000051 ], [ 72.21648196700005, 22.007798570000091 ], [ 72.220957879000082, 22.010972398000035 ], [ 72.237315300000034, 22.007025458000044 ], [ 72.24935957100007, 22.008286851000037 ], [ 72.257660352000073, 22.012152411000045 ], [ 72.275157097000033, 22.027533270000049 ], [ 72.276133660000085, 22.031642971000053 ], [ 72.283457879000082, 22.04360586100006 ], [ 72.291758660000085, 22.053412177000041 ], [ 72.295664910000085, 22.051174221000053 ], [ 72.298024936000047, 22.061672268000052 ], [ 72.307627800000034, 22.079006252000056 ], [ 72.317230665000068, 22.184881903000075 ], [ 72.306488477000073, 22.229559637000079 ], [ 72.268321160000085, 22.226752020000049 ], [ 72.239105665000068, 22.23891836100006 ], [ 72.234141472000033, 22.243557033000059 ], [ 72.237315300000034, 22.256293036000045 ], [ 72.243174675000034, 22.26593659100007 ], [ 72.246104363000029, 22.275580145000049 ], [ 72.240407748000052, 22.288234768000052 ], [ 72.209239129000082, 22.259426174000055 ], [ 72.19068444100003, 22.251288153000075 ], [ 72.166026238000029, 22.260321356000077 ], [ 72.148773634000065, 22.277899481000077 ], [ 72.16179446700005, 22.280951239000046 ], [ 72.20630944100003, 22.273911851000037 ], [ 72.200938347000033, 22.291449286000045 ], [ 72.208506707000083, 22.300441799000055 ], [ 72.223399285000085, 22.303168036000045 ], [ 72.240407748000052, 22.301906643000052 ], [ 72.264659050000034, 22.29523346600007 ], [ 72.265961134000065, 22.287339585000041 ], [ 72.263194207000083, 22.276353257000039 ], [ 72.275157097000033, 22.260321356000077 ], [ 72.28834069100003, 22.261297919000071 ], [ 72.309092644000032, 22.257228908000059 ], [ 72.328298373000052, 22.260728257000039 ], [ 72.336599155000044, 22.284816799000055 ], [ 72.340505405000044, 22.303208726000037 ], [ 72.349619988000029, 22.324367580000057 ], [ 72.36101321700005, 22.343451239000046 ], [ 72.371348504000082, 22.355902411000045 ], [ 72.397227410000085, 22.366766669000071 ], [ 72.408050977000073, 22.353461005000042 ], [ 72.404958530000044, 22.332953192000048 ], [ 72.388194207000083, 22.322333075000074 ], [ 72.380381707000083, 22.312404690000051 ], [ 72.381032748000052, 22.289943752000056 ], [ 72.386241082000083, 22.266506252000056 ], [ 72.39185631600003, 22.253485419000071 ], [ 72.41374759200005, 22.246323960000041 ], [ 72.432302280000044, 22.255845445000091 ], [ 72.448741082000083, 22.266831773000035 ], [ 72.463877800000034, 22.26398346600007 ], [ 72.466970248000052, 22.255845445000091 ], [ 72.454844597000033, 22.245306708000044 ], [ 72.457041863000029, 22.236721096000053 ], [ 72.46615644600007, 22.232570705000057 ], [ 72.479014519000032, 22.233384507000039 ], [ 72.501719597000033, 22.240423895000049 ], [ 72.52116946700005, 22.253119208000044 ], [ 72.553070509000065, 22.282456773000035 ], [ 72.573741082000083, 22.288234768000052 ], [ 72.596364780000044, 22.286932684000078 ], [ 72.606618686000047, 22.28384023600006 ], [ 72.625010613000029, 22.271389065000051 ], [ 72.635264519000032, 22.271633205000057 ], [ 72.646494988000029, 22.273911851000037 ], [ 72.65943444100003, 22.273911851000037 ], [ 72.726573113000029, 22.248928127000056 ], [ 72.756602410000085, 22.243719794000071 ], [ 72.785411004000082, 22.256903387000079 ], [ 72.798675977000073, 22.265570380000042 ], [ 72.818207227000073, 22.273423570000091 ], [ 72.838633660000085, 22.276556708000044 ], [ 72.854258660000085, 22.270819403000075 ], [ 72.869476759000065, 22.262396552000041 ], [ 72.88607832100007, 22.262396552000041 ], [ 72.89966881600003, 22.269191799000055 ], [ 72.905772332000083, 22.281398830000057 ], [ 72.917491082000083, 22.271429755000042 ], [ 72.922699415000068, 22.254584052000041 ], [ 72.922129754000082, 22.236517645000049 ], [ 72.916026238000029, 22.223089911000045 ], [ 72.897227410000085, 22.213039455000057 ], [ 72.881114129000082, 22.220404364000046 ], [ 72.865082227000073, 22.233465887000079 ], [ 72.847422722000033, 22.240423895000049 ], [ 72.812266472000033, 22.234116929000038 ], [ 72.790212436000047, 22.217230536000045 ], [ 72.748220248000052, 22.164048570000091 ], [ 72.729258660000085, 22.177435614000046 ], [ 72.719411655000044, 22.182196356000077 ], [ 72.707774285000085, 22.185777085000041 ], [ 72.699717644000032, 22.184963283000059 ], [ 72.691661004000082, 22.18195221600007 ], [ 72.681895379000082, 22.181586005000042 ], [ 72.66960696700005, 22.18891022300005 ], [ 72.652354363000029, 22.202337958000044 ], [ 72.63445071700005, 22.21039459800005 ], [ 72.614105665000068, 22.211737372000073 ], [ 72.590505405000044, 22.205023505000042 ], [ 72.57545006600003, 22.194525458000044 ], [ 72.557383660000085, 22.176662502000056 ], [ 72.542165561000047, 22.156724351000037 ], [ 72.535899285000085, 22.140529690000051 ], [ 72.533376498000052, 22.118557033000059 ], [ 72.530039910000085, 22.107489325000074 ], [ 72.519541863000029, 22.088446356000077 ], [ 72.519541863000029, 22.077541408000059 ], [ 72.521494988000029, 22.066148179000038 ], [ 72.522227410000085, 22.054266669000071 ], [ 72.517751498000052, 22.032131252000056 ], [ 72.504567905000044, 21.994208075000074 ], [ 72.501719597000033, 21.97601959800005 ], [ 72.50709069100003, 21.962307033000059 ], [ 72.533376498000052, 21.920314846000053 ], [ 72.542735222000033, 21.910834052000041 ], [ 72.558604363000029, 21.915269273000035 ], [ 72.581797722000033, 21.928168036000045 ], [ 72.602712436000047, 21.943589585000041 ], [ 72.611582879000082, 21.955511786000045 ], [ 72.623057488000029, 21.966620184000078 ], [ 72.693532748000052, 21.972316799000055 ], [ 72.695648634000065, 21.975897528000075 ], [ 72.697520379000082, 21.982123114000046 ], [ 72.700938347000033, 21.98891836100006 ], [ 72.707774285000085, 21.994045315000051 ], [ 72.713715040000068, 21.995794989000046 ], [ 72.719899936000047, 21.996323960000041 ], [ 72.726410352000073, 21.995754299000055 ], [ 72.734548373000052, 21.994045315000051 ], [ 72.734548373000052, 21.986558335000041 ], [ 72.714040561000047, 21.982977606000077 ], [ 72.706797722000033, 21.966131903000075 ], [ 72.702321811000047, 21.94757721600007 ], [ 72.690114780000044, 21.938788153000075 ], [ 72.652110222000033, 21.941066799000055 ], [ 72.63404381600003, 21.937486070000091 ], [ 72.61841881600003, 21.925116278000075 ], [ 72.598806186000047, 21.881008205000057 ], [ 72.585459832000083, 21.858872789000088 ], [ 72.566905144000032, 21.849351304000038 ], [ 72.562754754000082, 21.839422919000071 ], [ 72.55632571700005, 21.774318752000056 ], [ 72.55014082100007, 21.751939195000091 ], [ 72.532074415000068, 21.713853257000039 ], [ 72.528493686000047, 21.695135809000078 ], [ 72.534678582000083, 21.672919012000079 ], [ 72.550303582000083, 21.666693427000041 ], [ 72.570485873000052, 21.670477606000077 ], [ 72.616058790000068, 21.685451565000051 ], [ 72.634938998000052, 21.684637762000079 ], [ 72.653005405000044, 21.680568752000056 ], [ 72.676442905000044, 21.678127346000053 ], [ 72.733246290000068, 21.687486070000091 ], [ 72.755625847000033, 21.684963283000059 ], [ 72.79810631600003, 21.673529364000046 ], [ 72.819183790000068, 21.675034898000035 ], [ 72.840342644000032, 21.688381252000056 ], [ 72.858164910000085, 21.694973049000055 ], [ 72.882823113000029, 21.693019924000055 ], [ 72.926931186000047, 21.684963283000059 ], [ 72.950205925000034, 21.689154364000046 ], [ 72.99146569100003, 21.70844147300005 ], [ 73.012461785000085, 21.712836005000042 ], [ 73.022471550000034, 21.716009833000044 ], [ 73.041026238000029, 21.730169989000046 ], [ 73.046641472000033, 21.733343817000048 ], [ 73.083994988000029, 21.74640534100007 ], [ 73.11882571700005, 21.764715887000079 ], [ 73.126149936000047, 21.766831773000035 ], [ 73.132009311000047, 21.757798570000091 ], [ 73.126963738000029, 21.746771552000041 ], [ 73.116953972000033, 21.737250067000048 ], [ 73.108164910000085, 21.733343817000048 ], [ 73.084971550000034, 21.729681708000044 ], [ 73.022471550000034, 21.698553778000075 ], [ 72.965342644000032, 21.678778387000079 ], [ 72.935557488000029, 21.658351955000057 ], [ 72.889659050000034, 21.640529690000051 ], [ 72.871592644000032, 21.636542059000078 ], [ 72.85873457100007, 21.637600002000056 ], [ 72.833994988000029, 21.644476630000042 ], [ 72.823090040000068, 21.643947658000059 ], [ 72.810394727000073, 21.63507721600007 ], [ 72.789073113000029, 21.595526434000078 ], [ 72.773203972000033, 21.580511786000045 ], [ 72.751149936000047, 21.565130927000041 ], [ 72.726817254000082, 21.553168036000045 ], [ 72.703949415000068, 21.548407294000071 ], [ 72.690114780000044, 21.540676174000055 ], [ 72.651052280000044, 21.507025458000044 ], [ 72.635101759000065, 21.499335028000075 ], [ 72.619639519000032, 21.487372137000079 ], [ 72.589854363000029, 21.432766018000052 ], [ 72.58366946700005, 21.41742584800005 ], [ 72.612478061000047, 21.421861070000091 ], [ 72.665049675000034, 21.457220770000049 ], [ 72.68327884200005, 21.465806382000039 ], [ 72.738291863000029, 21.482855536000045 ], [ 72.748545769000032, 21.479641018000052 ], [ 72.752614780000044, 21.463568427000041 ], [ 72.747080925000034, 21.452866929000038 ], [ 72.728282097000033, 21.465806382000039 ], [ 72.676442905000044, 21.431626695000091 ], [ 72.672862175000034, 21.428127346000053 ], [ 72.635101759000065, 21.407456773000035 ], [ 72.573741082000083, 21.39008209800005 ], [ 72.564626498000052, 21.385809637000079 ], [ 72.56763756600003, 21.37641022300005 ], [ 72.578868035000085, 21.367010809000078 ], [ 72.594086134000065, 21.362779039000088 ], [ 72.623383009000065, 21.370266018000052 ], [ 72.638682488000029, 21.371242580000057 ], [ 72.64576256600003, 21.362779039000088 ], [ 72.638519727000073, 21.357163804000038 ], [ 72.60320071700005, 21.352728583000044 ], [ 72.590505405000044, 21.348537502000056 ], [ 72.586761915000068, 21.341213283000059 ], [ 72.588633660000085, 21.331976630000042 ], [ 72.597911004000082, 21.307562567000048 ], [ 72.602061394000032, 21.27765534100007 ], [ 72.606130405000044, 21.266587632000039 ], [ 72.61841881600003, 21.252915757000039 ], [ 72.625173373000052, 21.259344794000071 ], [ 72.64576256600003, 21.273382880000042 ], [ 72.646983269000032, 21.253607489000046 ], [ 72.659353061000047, 21.244696356000077 ], [ 72.67318769600007, 21.239081122000073 ], [ 72.679860873000052, 21.228989976000037 ], [ 72.687673373000052, 21.220445054000038 ], [ 72.723643425000034, 21.209133205000057 ], [ 72.734548373000052, 21.198919989000046 ], [ 72.721039259000065, 21.198797919000071 ], [ 72.711761915000068, 21.194037177000041 ], [ 72.693532748000052, 21.17845286700009 ], [ 72.630381707000083, 21.135972398000035 ], [ 72.615489129000082, 21.119818427000041 ], [ 72.615000847000033, 21.105861721000053 ], [ 72.629649285000085, 21.087958075000074 ], [ 72.637868686000047, 21.08539459800005 ], [ 72.658702019000032, 21.097601630000042 ], [ 72.666351759000065, 21.097398179000038 ], [ 72.67123457100007, 21.099798895000049 ], [ 72.673024936000047, 21.112616278000075 ], [ 72.671885613000029, 21.134426174000055 ], [ 72.672699415000068, 21.145738023000035 ], [ 72.676442905000044, 21.153631903000075 ], [ 72.686696811000047, 21.158148505000042 ], [ 72.706553582000083, 21.157700914000088 ], [ 72.714040561000047, 21.164129950000074 ], [ 72.728688998000052, 21.148098049000055 ], [ 72.720550977000073, 21.129706122000073 ], [ 72.705821160000085, 21.106350002000056 ], [ 72.700368686000047, 21.074774481000077 ], [ 72.73015384200005, 21.087836005000042 ], [ 72.734548373000052, 21.092474677000041 ], [ 72.73560631600003, 21.110744533000059 ], [ 72.73764082100007, 21.117377020000049 ], [ 72.741953972000033, 21.123236395000049 ], [ 72.746348504000082, 21.118353583000044 ], [ 72.752777540000068, 21.113714911000045 ], [ 72.755625847000033, 21.109564520000049 ], [ 72.799571160000085, 21.128810940000051 ], [ 72.809580925000034, 21.130031643000052 ], [ 72.815928582000083, 21.121486721000053 ], [ 72.849864129000082, 21.048000393000052 ], [ 72.84498131600003, 21.038316148000035 ], [ 72.823090040000068, 21.03384023600006 ], [ 72.783946160000085, 21.040432033000059 ], [ 72.76685631600003, 21.038560289000088 ], [ 72.771983269000032, 21.023871161000045 ], [ 72.781993035000085, 21.010158596000053 ], [ 72.787608269000032, 21.006903387000079 ], [ 72.799327019000032, 21.005845445000091 ], [ 72.808360222000033, 21.003973700000074 ], [ 72.81609134200005, 20.999009507000039 ], [ 72.821299675000034, 20.991603908000059 ], [ 72.823090040000068, 20.982611395000049 ], [ 72.832692905000044, 20.972357489000046 ], [ 72.853770379000082, 20.97492096600007 ], [ 72.875987175000034, 20.981350002000056 ], [ 72.888438347000033, 20.982611395000049 ], [ 72.886485222000033, 20.962103583000044 ], [ 72.856455925000034, 20.94798411700009 ], [ 72.836680535000085, 20.929917710000041 ], [ 72.86491946700005, 20.897284247000073 ], [ 72.854258660000085, 20.887152411000045 ], [ 72.845876498000052, 20.851792710000041 ], [ 72.836924675000034, 20.835842190000051 ], [ 72.875336134000065, 20.862494208000044 ], [ 72.881195509000065, 20.865668036000045 ], [ 72.89380944100003, 20.870062567000048 ], [ 72.900401238000029, 20.868109442000048 ], [ 72.888438347000033, 20.851955471000053 ], [ 72.88013756600003, 20.829901434000078 ], [ 72.885752800000034, 20.807114976000037 ], [ 72.900238477000073, 20.79913971600007 ], [ 72.919444207000083, 20.821519273000035 ], [ 72.924978061000047, 20.810614325000074 ], [ 72.922862175000034, 20.802679755000042 ], [ 72.919118686000047, 20.795599677000041 ], [ 72.919444207000083, 20.78742096600007 ], [ 72.926442905000044, 20.780991929000038 ], [ 72.936371290000068, 20.776271877000056 ], [ 72.94499759200005, 20.770005601000037 ], [ 72.946787957000083, 20.759466864000046 ], [ 72.940277540000068, 20.759426174000055 ], [ 72.898936394000032, 20.732163804000038 ], [ 72.907969597000033, 20.718329169000071 ], [ 72.90943444100003, 20.69867584800005 ], [ 72.905772332000083, 20.653306382000039 ], [ 72.902598504000082, 20.641913153000075 ], [ 72.888438347000033, 20.628485419000071 ], [ 72.885264519000032, 20.619208075000074 ], [ 72.886241082000083, 20.608465887000079 ], [ 72.890635613000029, 20.587062893000052 ], [ 72.891449415000068, 20.575140692000048 ], [ 72.890391472000033, 20.552679755000042 ], [ 72.886485222000033, 20.53156159100007 ], [ 72.879161004000082, 20.51243724200009 ], [ 72.840017123000052, 20.458726304000038 ], [ 72.82943769600007, 20.437933661000045 ], [ 72.823090040000068, 20.416815497000073 ], [ 72.820811394000032, 20.386135158000059 ], [ 72.817067905000044, 20.375921942000048 ], [ 72.810313347000033, 20.368841864000046 ], [ 72.79818769600007, 20.359320380000042 ], [ 72.78679446700005, 20.352240302000041 ], [ 72.781586134000065, 20.35228099200009 ], [ 72.777517123000052, 20.330064195000091 ], [ 72.767832879000082, 20.31195709800005 ], [ 72.756602410000085, 20.295965887000079 ], [ 72.748220248000052, 20.280340887000079 ], [ 72.743011915000068, 20.247748114000046 ], [ 72.741953972000033, 20.24555084800005 ], [ 72.741953972000033, 20.225043036000045 ], [ 72.744395379000082, 20.21938711100006 ], [ 72.749034050000034, 20.218329169000071 ], [ 72.75359134200005, 20.21820709800005 ], [ 72.755625847000033, 20.21515534100007 ], [ 72.752289259000065, 20.20376211100006 ], [ 72.73764082100007, 20.184271552000041 ], [ 72.734548373000052, 20.173529364000046 ], [ 72.728282097000033, 20.129461981000077 ], [ 72.71029707100007, 20.082912502000056 ], [ 72.707774285000085, 20.071112372000073 ], [ 72.707774285000085, 20.012762762000079 ], [ 72.703379754000082, 19.997626044000071 ], [ 72.694509311000047, 19.979315497000073 ], [ 72.684336785000085, 19.964016018000052 ], [ 72.676442905000044, 19.957505601000037 ], [ 72.665212436000047, 19.952948309000078 ], [ 72.662771030000044, 19.941799221000053 ], [ 72.666188998000052, 19.916571356000077 ], [ 72.664235873000052, 19.88157786700009 ], [ 72.659190300000034, 19.866441148000035 ], [ 72.649180535000085, 19.851996161000045 ], [ 72.65007571700005, 19.841986395000049 ], [ 72.672862175000034, 19.81281159100007 ], [ 72.679860873000052, 19.800482489000046 ], [ 72.675791863000029, 19.764146226000037 ], [ 72.677907748000052, 19.746568101000037 ], [ 72.690114780000044, 19.748968817000048 ], [ 72.728282097000033, 19.793646552000041 ], [ 72.732758009000065, 19.779730536000045 ], [ 72.73406009200005, 19.771918036000045 ], [ 72.734548373000052, 19.762640692000048 ], [ 72.731293165000068, 19.754584052000041 ], [ 72.724375847000033, 19.75267161700009 ], [ 72.717295769000032, 19.751532294000071 ], [ 72.714040561000047, 19.745835679000038 ], [ 72.718597852000073, 19.727932033000059 ], [ 72.726410352000073, 19.715236721000053 ], [ 72.726410352000073, 19.70579661700009 ], [ 72.707774285000085, 19.697455145000049 ], [ 72.704600457000083, 19.706529039000088 ], [ 72.699961785000085, 19.714178778000075 ], [ 72.694102410000085, 19.720200914000088 ], [ 72.686696811000047, 19.724798895000049 ], [ 72.709646030000044, 19.649969794000071 ], [ 72.71802819100003, 19.606675523000035 ], [ 72.710785352000073, 19.587591864000046 ], [ 72.722504102000073, 19.536281643000052 ], [ 72.74154707100007, 19.516017971000053 ], [ 72.749196811000047, 19.512600002000056 ], [ 72.755625847000033, 19.519354559000078 ], [ 72.754893425000034, 19.527044989000046 ], [ 72.74927819100003, 19.534247137000079 ], [ 72.734548373000052, 19.546616929000038 ], [ 72.739756707000083, 19.552679755000042 ], [ 72.740733269000032, 19.560736395000049 ], [ 72.738291863000029, 19.570257880000042 ], [ 72.734548373000052, 19.58079661700009 ], [ 72.741953972000033, 19.58079661700009 ], [ 72.760020379000082, 19.573065497000073 ], [ 72.770681186000047, 19.566148179000038 ], [ 72.775401238000029, 19.557196356000077 ], [ 72.77702884200005, 19.54555898600006 ], [ 72.781260613000029, 19.53656647300005 ], [ 72.787852410000085, 19.530259507000039 ], [ 72.795909050000034, 19.52680084800005 ], [ 72.815928582000083, 19.528509833000044 ], [ 72.835948113000029, 19.536688544000071 ], [ 72.85670006600003, 19.54132721600007 ], [ 72.879161004000082, 19.532375393000052 ], [ 72.76921634200005, 19.490464585000041 ], [ 72.754405144000032, 19.481756903000075 ], [ 72.746836785000085, 19.467962958000044 ], [ 72.748220248000052, 19.444240627000056 ], [ 72.759776238000029, 19.38898346600007 ], [ 72.763438347000033, 19.380194403000075 ], [ 72.787608269000032, 19.345200914000088 ], [ 72.80209394600007, 19.331935940000051 ], [ 72.818532748000052, 19.330267645000049 ], [ 72.836924675000034, 19.348049221000053 ], [ 72.855316602000073, 19.339504299000055 ], [ 72.883555535000085, 19.316392320000091 ], [ 72.898936394000032, 19.307033596000053 ], [ 72.916758660000085, 19.30337148600006 ], [ 72.970957879000082, 19.307033596000053 ], [ 72.987803582000083, 19.300685940000051 ], [ 73.001800977000073, 19.28656647300005 ], [ 73.012461785000085, 19.272447007000039 ], [ 73.019297722000033, 19.266058661000045 ], [ 73.029144727000073, 19.259344794000071 ], [ 73.028005405000044, 19.244086005000042 ], [ 73.030039910000085, 19.227728583000044 ], [ 73.049652540000068, 19.217718817000048 ], [ 73.02662194100003, 19.205511786000045 ], [ 73.010508660000085, 19.224310614000046 ], [ 72.988291863000029, 19.279120184000078 ], [ 72.972666863000029, 19.29368724200009 ], [ 72.959727410000085, 19.294826565000051 ], [ 72.94654381600003, 19.289862372000073 ], [ 72.930349155000044, 19.28656647300005 ], [ 72.900563998000052, 19.290757554000038 ], [ 72.885508660000085, 19.296047268000052 ], [ 72.867035352000073, 19.316799221000053 ], [ 72.839366082000083, 19.31907786700009 ], [ 72.785411004000082, 19.31391022300005 ], [ 72.775645379000082, 19.299017645000049 ], [ 72.772227410000085, 19.265122789000088 ], [ 72.775401238000029, 19.204657294000071 ], [ 72.789398634000065, 19.217352606000077 ], [ 72.80209394600007, 19.237860419000071 ], [ 72.815114780000044, 19.253648179000038 ], [ 72.830088738000029, 19.252427476000037 ], [ 72.819834832000083, 19.240627346000053 ], [ 72.802500847000033, 19.211615302000041 ], [ 72.783376498000052, 19.168646552000041 ], [ 72.781586134000065, 19.159654039000088 ], [ 72.784922722000033, 19.150376695000091 ], [ 72.792165561000047, 19.150458075000074 ], [ 72.799571160000085, 19.15688711100006 ], [ 72.805186394000032, 19.171820380000042 ], [ 72.811208530000044, 19.175523179000038 ], [ 72.81804446700005, 19.175360419000071 ], [ 72.823090040000068, 19.169256903000075 ], [ 72.822438998000052, 19.163763739000046 ], [ 72.81218509200005, 19.153713283000059 ], [ 72.809580925000034, 19.146307684000078 ], [ 72.81177819100003, 19.13735586100006 ], [ 72.821055535000085, 19.119208075000074 ], [ 72.823090040000068, 19.108465887000079 ], [ 72.82195071700005, 19.09711334800005 ], [ 72.809580925000034, 19.066839911000045 ], [ 72.821299675000034, 19.063177802000041 ], [ 72.824229363000029, 19.053534247000073 ], [ 72.821787957000083, 19.041978257000039 ], [ 72.817067905000044, 19.032700914000088 ], [ 72.812998894000032, 19.035549221000053 ], [ 72.802744988000029, 19.040187893000052 ], [ 72.804942254000082, 19.011053778000075 ], [ 72.80241946700005, 18.999660549000055 ], [ 72.795909050000034, 18.984930731000077 ], [ 72.776052280000044, 18.95970286700009 ], [ 72.770355665000068, 18.948187567000048 ], [ 72.775401238000029, 18.936509507000039 ], [ 72.788259311000047, 18.946519273000035 ], [ 72.79232832100007, 18.951239325000074 ], [ 72.795909050000034, 18.957586981000077 ], [ 72.802744988000029, 18.957586981000077 ], [ 72.807383660000085, 18.94281647300005 ], [ 72.805349155000044, 18.930975653000075 ], [ 72.80201256600003, 18.920477606000077 ], [ 72.802744988000029, 18.909816799000055 ], [ 72.812510613000029, 18.897447007000039 ], [ 72.821299675000034, 18.903306382000039 ], [ 72.827647332000083, 18.918361721000053 ], [ 72.836273634000065, 18.959133205000057 ], [ 72.851084832000083, 18.987127997000073 ], [ 72.869313998000052, 19.011419989000046 ], [ 72.885264519000032, 19.025864976000037 ], [ 72.891449415000068, 19.001369533000059 ], [ 72.891449415000068, 18.991766669000071 ], [ 72.934255405000044, 19.034084377000056 ], [ 72.943369988000029, 19.055121161000045 ], [ 72.926931186000047, 19.066839911000045 ], [ 72.933929884000065, 19.080308335000041 ], [ 72.935557488000029, 19.115057684000078 ], [ 72.950043165000068, 19.127915757000039 ], [ 72.967295769000032, 19.163072007000039 ], [ 72.974782748000052, 19.163072007000039 ], [ 72.967295769000032, 19.091009833000044 ], [ 72.973806186000047, 19.078558661000045 ], [ 72.98568769600007, 19.074286200000074 ], [ 72.99187259200005, 19.067206122000073 ], [ 72.980967644000032, 19.046372789000088 ], [ 72.987803582000083, 19.036932684000078 ], [ 72.983571811000047, 19.010443427000041 ], [ 72.988291863000029, 18.998602606000077 ], [ 73.011892123000052, 19.009426174000055 ], [ 73.039805535000085, 19.017523505000042 ], [ 73.056813998000052, 19.015326239000046 ], [ 73.046641472000033, 18.995184637000079 ], [ 73.042165561000047, 18.995754299000055 ], [ 72.992035352000073, 18.982489325000074 ], [ 72.968272332000083, 18.972601630000042 ], [ 72.953623894000032, 18.971258856000077 ], [ 72.953623894000032, 18.964422919000071 ], [ 72.988291863000029, 18.964422919000071 ], [ 72.977224155000044, 18.948431708000044 ], [ 72.963389519000032, 18.94798411700009 ], [ 72.949229363000029, 18.95148346600007 ], [ 72.93677819100003, 18.947414455000057 ], [ 72.934580925000034, 18.920803127000056 ], [ 72.928070509000065, 18.911363023000035 ], [ 72.912608269000032, 18.923488674000055 ], [ 72.896820509000065, 18.894476630000042 ], [ 72.916270379000082, 18.870510158000059 ], [ 72.946136915000068, 18.858303127000056 ], [ 72.961680535000085, 18.865139065000051 ], [ 72.963145379000082, 18.868963934000078 ], [ 72.966970248000052, 18.872137762000079 ], [ 72.972178582000083, 18.874253648000035 ], [ 72.97779381600003, 18.874986070000091 ], [ 72.98170006600003, 18.871486721000053 ], [ 72.97974694100003, 18.863348700000074 ], [ 72.976084832000083, 18.854396877000056 ], [ 72.974782748000052, 18.848334052000041 ], [ 72.981293165000068, 18.832709052000041 ], [ 72.98796634200005, 18.82493724200009 ], [ 73.016286655000044, 18.813625393000052 ], [ 73.002452019000032, 18.801459052000041 ], [ 72.991709832000083, 18.779364325000074 ], [ 72.988047722000033, 18.753851630000042 ], [ 72.995127800000034, 18.731024481000077 ], [ 72.980642123000052, 18.736761786000045 ], [ 72.969574415000068, 18.746975002000056 ], [ 72.966319207000083, 18.761419989000046 ], [ 72.974782748000052, 18.779486395000049 ], [ 72.938975457000083, 18.816961981000077 ], [ 72.926931186000047, 18.826646226000037 ], [ 72.912608269000032, 18.799994208000044 ], [ 72.90202884200005, 18.799505927000041 ], [ 72.887054884000065, 18.807033596000053 ], [ 72.879161004000082, 18.80735911700009 ], [ 72.865570509000065, 18.799383856000077 ], [ 72.856944207000083, 18.786200262000079 ], [ 72.852386915000068, 18.769924221000053 ], [ 72.851735873000052, 18.719671942000048 ], [ 72.855316602000073, 18.681138414000088 ], [ 72.86451256600003, 18.648911851000037 ], [ 72.88217207100007, 18.63548411700009 ], [ 72.905772332000083, 18.577134507000039 ], [ 72.910166863000029, 18.558986721000053 ], [ 72.92115319100003, 18.554877020000049 ], [ 72.950205925000034, 18.560370184000078 ], [ 72.96029707100007, 18.554673570000091 ], [ 72.97038821700005, 18.541001695000091 ], [ 72.97787519600007, 18.524115302000041 ], [ 72.980967644000032, 18.508856512000079 ], [ 72.988780144000032, 18.489935614000046 ], [ 73.004405144000032, 18.480047919000071 ], [ 73.01498457100007, 18.469956773000092 ], [ 73.008799675000034, 18.450506903000075 ], [ 72.990244988000029, 18.469956773000092 ], [ 72.961110873000052, 18.517726955000057 ], [ 72.946787957000083, 18.532416083000044 ], [ 72.924652540000068, 18.535630601000037 ], [ 72.907237175000034, 18.523586330000057 ], [ 72.89576256600003, 18.502997137000079 ], [ 72.891449415000068, 18.480902411000045 ], [ 72.889659050000034, 18.441310940000051 ], [ 72.891449415000068, 18.429388739000046 ], [ 72.897227410000085, 18.417303778000075 ], [ 72.904307488000029, 18.40851471600007 ], [ 72.910166863000029, 18.399237372000073 ], [ 72.912608269000032, 18.385646877000056 ], [ 72.911631707000083, 18.377346096000053 ], [ 72.910166863000029, 18.37250397300005 ], [ 72.90984134200005, 18.368068752000056 ], [ 72.912608269000032, 18.361151434000078 ], [ 72.91732832100007, 18.356390692000048 ], [ 72.922536655000044, 18.356634833000044 ], [ 72.927907748000052, 18.357570705000057 ], [ 72.933604363000029, 18.35492584800005 ], [ 72.95085696700005, 18.332953192000048 ], [ 72.958750847000033, 18.328111070000091 ], [ 72.974782748000052, 18.32758209800005 ], [ 72.96802819100003, 18.310614325000074 ], [ 72.977386915000068, 18.295070705000057 ], [ 72.994883660000085, 18.283596096000053 ], [ 73.012461785000085, 18.279201565000051 ], [ 73.042979363000029, 18.282375393000052 ], [ 73.056976759000065, 18.280951239000046 ], [ 73.07154381600003, 18.273016669000071 ], [ 73.065277540000068, 18.257554429000038 ], [ 73.073985222000033, 18.224188544000071 ], [ 73.07154381600003, 18.204087632000039 ], [ 73.057465040000068, 18.185614325000074 ], [ 73.047618035000085, 18.188788153000075 ], [ 73.047618035000085, 18.201157945000091 ], [ 73.063487175000034, 18.210353908000059 ], [ 73.050954623000052, 18.227484442000048 ], [ 73.032399936000047, 18.237860419000071 ], [ 73.012461785000085, 18.243150132000039 ], [ 72.995127800000034, 18.245062567000048 ], [ 72.982269727000073, 18.244208075000074 ], [ 72.976735873000052, 18.242580471000053 ], [ 72.972666863000029, 18.244696356000077 ], [ 72.96452884200005, 18.254950262000079 ], [ 72.959239129000082, 18.265855210000041 ], [ 72.957530144000032, 18.274603583000044 ], [ 72.953135613000029, 18.281317450000074 ], [ 72.939952019000032, 18.286037502000056 ], [ 72.935069207000083, 18.276312567000048 ], [ 72.93327884200005, 18.266587632000039 ], [ 72.93482506600003, 18.257879950000074 ], [ 72.939952019000032, 18.251288153000075 ], [ 72.93523196700005, 18.24477773600006 ], [ 72.926931186000047, 18.223944403000075 ], [ 72.954844597000033, 18.21751536700009 ], [ 72.967295769000032, 18.195990302000041 ], [ 72.976084832000083, 18.118638414000088 ], [ 72.978363477000073, 18.111883856000077 ], [ 72.984629754000082, 18.104193427000041 ], [ 72.988129102000073, 18.09601471600007 ], [ 72.986664259000065, 18.087713934000078 ], [ 72.983164910000085, 18.081732489000046 ], [ 72.980967644000032, 18.080552476000037 ], [ 72.987315300000034, 18.066555080000057 ], [ 73.001149936000047, 18.052069403000075 ], [ 73.008799675000034, 18.039007880000042 ], [ 73.015147332000083, 18.04913971600007 ], [ 73.02271569100003, 18.057684637000079 ], [ 73.031993035000085, 18.06391022300005 ], [ 73.043467644000032, 18.066961981000077 ], [ 73.04224694100003, 18.048976955000057 ], [ 73.03248131600003, 18.041083075000074 ], [ 73.019541863000029, 18.03587474200009 ], [ 73.008799675000034, 18.025946356000077 ], [ 73.00521894600007, 18.01235586100006 ], [ 73.008636915000068, 18.000230210000041 ], [ 73.01889082100007, 17.99249909100007 ], [ 73.035411004000082, 17.991848049000055 ], [ 73.017100457000083, 17.97211334800005 ], [ 73.018565300000034, 17.951727606000077 ], [ 73.065196160000085, 17.87836334800005 ], [ 73.073741082000083, 17.857123114000046 ], [ 73.07943769600007, 17.824611721000053 ], [ 73.085459832000083, 17.813666083000044 ], [ 73.101328972000033, 17.79633209800005 ], [ 73.106618686000047, 17.785549221000053 ], [ 73.109873894000032, 17.758286851000037 ], [ 73.115000847000033, 17.748195705000057 ], [ 73.123301629000082, 17.73578522300005 ], [ 73.123220248000052, 17.723334052000041 ], [ 73.117360873000052, 17.71124909100007 ], [ 73.108164910000085, 17.699774481000077 ], [ 73.105479363000029, 17.68891022300005 ], [ 73.110524936000047, 17.675726630000042 ], [ 73.118907097000033, 17.663478908000059 ], [ 73.126149936000047, 17.655422268000052 ], [ 73.120290561000047, 17.64203522300005 ], [ 73.121348504000082, 17.62641022300005 ], [ 73.12818444100003, 17.611558335000041 ], [ 73.139170769000032, 17.600775458000044 ], [ 73.154063347000033, 17.595607815000051 ], [ 73.185883009000065, 17.59251536700009 ], [ 73.200694207000083, 17.586493231000077 ], [ 73.16342207100007, 17.569484768000052 ], [ 73.149424675000034, 17.567287502000056 ], [ 73.13640384200005, 17.567206122000073 ], [ 73.127940300000034, 17.564683335000041 ], [ 73.125987175000034, 17.556545315000051 ], [ 73.131683790000068, 17.53937409100007 ], [ 73.165537957000083, 17.503404039000088 ], [ 73.180674675000034, 17.477687893000052 ], [ 73.173350457000083, 17.457424221000053 ], [ 73.185394727000073, 17.441880601000037 ], [ 73.17709394600007, 17.426662502000056 ], [ 73.16529381600003, 17.413031317000048 ], [ 73.166514519000032, 17.402167059000078 ], [ 73.170583530000044, 17.389715887000079 ], [ 73.195974155000044, 17.369370835000041 ], [ 73.207367384000065, 17.353745835000041 ], [ 73.234711134000065, 17.302313544000071 ], [ 73.249034050000034, 17.284857489000046 ], [ 73.231211785000085, 17.279282945000091 ], [ 73.217133009000065, 17.286851304000038 ], [ 73.203461134000065, 17.298732815000051 ], [ 73.187022332000083, 17.305975653000075 ], [ 73.193125847000033, 17.294012762000079 ], [ 73.211192254000082, 17.275091864000046 ], [ 73.214854363000029, 17.268744208000044 ], [ 73.21802819100003, 17.253241278000075 ], [ 73.23601321700005, 17.220607815000051 ], [ 73.236175977000073, 17.199204820000091 ], [ 73.25513756600003, 17.165187893000052 ], [ 73.260590040000068, 17.150539455000057 ], [ 73.261973504000082, 17.134955145000049 ], [ 73.25513756600003, 17.120998440000051 ], [ 73.267425977000073, 17.101385809000078 ], [ 73.275726759000065, 17.078599351000037 ], [ 73.277354363000029, 17.054673570000091 ], [ 73.269379102000073, 17.031642971000053 ], [ 73.258962436000047, 17.044094143000052 ], [ 73.251475457000083, 17.04242584800005 ], [ 73.25123131600003, 17.032171942000048 ], [ 73.262705925000034, 17.018540757000039 ], [ 73.254567905000044, 17.006740627000056 ], [ 73.262380405000044, 16.996975002000056 ], [ 73.289398634000065, 16.98383209800005 ], [ 73.274912957000083, 16.958644924000055 ], [ 73.270518425000034, 16.945013739000046 ], [ 73.269379102000073, 16.929185289000088 ], [ 73.279063347000033, 16.891913153000075 ], [ 73.279551629000082, 16.887640692000048 ], [ 73.269379102000073, 16.87563711100006 ], [ 73.27466881600003, 16.848822333000044 ], [ 73.286631707000083, 16.820868231000077 ], [ 73.296885613000029, 16.805650132000039 ], [ 73.303721550000034, 16.81313711100006 ], [ 73.304453972000033, 16.793524481000077 ], [ 73.295258009000065, 16.768052476000037 ], [ 73.289561394000032, 16.740220445000091 ], [ 73.300303582000083, 16.71320221600007 ], [ 73.316579623000052, 16.699896552000041 ], [ 73.32162519600007, 16.692450262000079 ], [ 73.32349694100003, 16.679103908000059 ], [ 73.321462436000047, 16.670843817000048 ], [ 73.312510613000029, 16.658392645000049 ], [ 73.310557488000029, 16.651434637000079 ], [ 73.31218509200005, 16.644720770000049 ], [ 73.32349694100003, 16.620672919000071 ], [ 73.338877800000034, 16.631659247000073 ], [ 73.354258660000085, 16.634670315000051 ], [ 73.36646569100003, 16.628078518000052 ], [ 73.371267123000052, 16.610174872000073 ], [ 73.368662957000083, 16.599025783000059 ], [ 73.363047722000033, 16.596828518000052 ], [ 73.358409050000034, 16.603949286000045 ], [ 73.358246290000068, 16.620672919000071 ], [ 73.326996290000068, 16.607123114000046 ], [ 73.32349694100003, 16.606431382000039 ], [ 73.31609134200005, 16.600043036000045 ], [ 73.314626498000052, 16.599432684000078 ], [ 73.31609134200005, 16.59829336100006 ], [ 73.317230665000068, 16.590277411000045 ], [ 73.322764519000032, 16.576157945000091 ], [ 73.336436394000032, 16.565619208000044 ], [ 73.354014519000032, 16.559637762000079 ], [ 73.371267123000052, 16.559271552000041 ], [ 73.365000847000033, 16.554388739000046 ], [ 73.354340040000068, 16.543158270000049 ], [ 73.35084069100003, 16.538153387000079 ], [ 73.356211785000085, 16.530747789000088 ], [ 73.362315300000034, 16.525458075000074 ], [ 73.369476759000065, 16.521470445000091 ], [ 73.378672722000033, 16.51829661700009 ], [ 73.355723504000082, 16.519435940000051 ], [ 73.344004754000082, 16.523586330000057 ], [ 73.32349694100003, 16.544989325000074 ], [ 73.32195071700005, 16.548488674000055 ], [ 73.314952019000032, 16.557603257000039 ], [ 73.307302280000044, 16.563177802000041 ], [ 73.303721550000034, 16.555568752000056 ], [ 73.302989129000082, 16.533026434000078 ], [ 73.305837436000047, 16.522650458000044 ], [ 73.31381269600007, 16.51829661700009 ], [ 73.319183790000068, 16.509751695000091 ], [ 73.333994988000029, 16.468166408000059 ], [ 73.341319207000083, 16.432074286000045 ], [ 73.352061394000032, 16.418117580000057 ], [ 73.367442254000082, 16.408636786000045 ], [ 73.384938998000052, 16.401597398000092 ], [ 73.373057488000029, 16.395656643000052 ], [ 73.364431186000047, 16.38930898600006 ], [ 73.359385613000029, 16.380601304000038 ], [ 73.358246290000068, 16.36749909100007 ], [ 73.375661655000044, 16.360256252000056 ], [ 73.378672722000033, 16.356919664000088 ], [ 73.377777540000068, 16.337958075000074 ], [ 73.378672722000033, 16.332709052000041 ], [ 73.406097852000073, 16.250799872000073 ], [ 73.410411004000082, 16.230454820000091 ], [ 73.413584832000083, 16.223944403000075 ], [ 73.419688347000033, 16.216701565000051 ], [ 73.425954623000052, 16.21515534100007 ], [ 73.430837436000047, 16.218736070000091 ], [ 73.43523196700005, 16.217840887000079 ], [ 73.440196160000085, 16.202337958000044 ], [ 73.440196160000085, 16.162014065000051 ], [ 73.447032097000033, 16.11359284100007 ], [ 73.448008660000085, 16.14329661700009 ], [ 73.45281009200005, 16.166571356000077 ], [ 73.465017123000052, 16.18227773600006 ], [ 73.48796634200005, 16.189357815000051 ], [ 73.479258660000085, 16.177232164000088 ], [ 73.470225457000083, 16.168890692000048 ], [ 73.463389519000032, 16.159572658000059 ], [ 73.460703972000033, 16.144680080000057 ], [ 73.460703972000033, 16.086330471000053 ], [ 73.457530144000032, 16.07953522300005 ], [ 73.452972852000073, 16.074164130000042 ], [ 73.447032097000033, 16.068915106000077 ], [ 73.450368686000047, 16.05890534100007 ], [ 73.457530144000032, 16.054185289000088 ], [ 73.464854363000029, 16.051662502000056 ], [ 73.46810957100007, 16.048488674000055 ], [ 73.472504102000073, 16.036363023000092 ], [ 73.483897332000083, 16.028225002000056 ], [ 73.49927819100003, 16.024318752000056 ], [ 73.515961134000065, 16.02484772300005 ], [ 73.515961134000065, 16.017401434000078 ], [ 73.487315300000034, 16.014227606000077 ], [ 73.490977410000085, 15.993475653000075 ], [ 73.510101759000065, 15.967596747000073 ], [ 73.52898196700005, 15.949164130000042 ], [ 73.58757571700005, 15.902899481000077 ], [ 73.604665561000047, 15.880845445000091 ], [ 73.638845248000052, 15.817206122000073 ], [ 73.646250847000033, 15.792141018000052 ], [ 73.643565300000034, 15.749090887000079 ], [ 73.646250847000033, 15.736883856000077 ], [ 73.656016472000033, 15.730292059000078 ], [ 73.672373894000032, 15.726507880000042 ], [ 73.689870639000048, 15.72447337400007 ], [ 73.70085696700005, 15.723211981000077 ], [ 73.68677819100003, 15.713120835000041 ], [ 73.685883009000065, 15.704291083000044 ], [ 73.69076582100007, 15.693793036000045 ], [ 73.697927280000044, 15.66282786700009 ], [ 73.707041863000029, 15.643703518000052 ], [ 73.718272332000083, 15.627142645000049 ], [ 73.728282097000033, 15.619574286000045 ], [ 73.733246290000068, 15.625067450000074 ], [ 73.768239780000044, 15.646918036000045 ], [ 73.77662194100003, 15.650864976000037 ], [ 73.783864780000044, 15.659125067000048 ], [ 73.801036004000082, 15.661851304000038 ], [ 73.838145379000082, 15.661118882000039 ], [ 73.838145379000082, 15.654282945000091 ], [ 73.787364129000082, 15.641791083000044 ], [ 73.760427280000044, 15.632025458000044 ], [ 73.748708530000044, 15.616766669000071 ], [ 73.746592644000032, 15.608384507000039 ], [ 73.741709832000083, 15.604193427000041 ], [ 73.737071160000085, 15.598537502000056 ], [ 73.735118035000085, 15.586004950000074 ], [ 73.736827019000032, 15.57172272300005 ], [ 73.741221550000034, 15.559963283000059 ], [ 73.756114129000082, 15.537583726000037 ], [ 73.75123131600003, 15.51312897300005 ], [ 73.766286655000044, 15.497259833000044 ], [ 73.78638756600003, 15.492173570000091 ], [ 73.796397332000083, 15.500392971000053 ], [ 73.865977410000085, 15.537583726000037 ], [ 73.865977410000085, 15.531398830000057 ], [ 73.860524936000047, 15.525864976000037 ], [ 73.859548373000052, 15.521144924000055 ], [ 73.863129102000073, 15.51634349200009 ], [ 73.872243686000047, 15.510931708000044 ], [ 73.828135613000029, 15.50141022300005 ], [ 73.817556186000047, 15.496649481000077 ], [ 73.808848504000082, 15.488023179000038 ], [ 73.80046634200005, 15.475002346000053 ], [ 73.795176629000082, 15.460760809000078 ], [ 73.796397332000083, 15.448879299000055 ], [ 73.806162957000083, 15.452215887000079 ], [ 73.841563347000033, 15.448879299000055 ], [ 73.846853061000047, 15.447088934000078 ], [ 73.854177280000044, 15.438299872000073 ], [ 73.858571811000047, 15.435207424000055 ], [ 73.865082227000073, 15.43431224200009 ], [ 73.879161004000082, 15.435777085000041 ], [ 73.885915561000047, 15.435207424000055 ], [ 73.927582227000073, 15.417385158000059 ], [ 73.937022332000083, 15.411322333000044 ], [ 73.959971550000034, 15.380682684000078 ], [ 73.967784050000034, 15.37376536700009 ], [ 73.96420332100007, 15.370184637000079 ], [ 73.961680535000085, 15.368231512000079 ], [ 73.958506707000083, 15.367173570000091 ], [ 73.954112175000034, 15.366278387000079 ], [ 73.945323113000029, 15.385687567000048 ], [ 73.933360222000033, 15.395412502000056 ], [ 73.899587436000047, 15.407904364000046 ], [ 73.884938998000052, 15.398016669000071 ], [ 73.871918165000068, 15.401841539000088 ], [ 73.860118035000085, 15.407863674000055 ], [ 73.848399285000085, 15.404486395000049 ], [ 73.839366082000083, 15.404038804000038 ], [ 73.78288821700005, 15.407904364000046 ], [ 73.810394727000073, 15.37759023600006 ], [ 73.82740319100003, 15.365179755000042 ], [ 73.848399285000085, 15.36009349200009 ], [ 73.869476759000065, 15.359564520000049 ], [ 73.882578972000033, 15.355292059000078 ], [ 73.891286655000044, 15.34320709800005 ], [ 73.947276238000029, 15.160834052000041 ], [ 73.954112175000034, 15.16828034100007 ], [ 73.96216881600003, 15.152044989000046 ], [ 73.95826256600003, 15.143133856000077 ], [ 73.937022332000083, 15.130438544000071 ], [ 73.92896569100003, 15.120591539000088 ], [ 73.922536655000044, 15.107855536000045 ], [ 73.913096550000034, 15.078924872000073 ], [ 73.964366082000083, 15.064642645000049 ], [ 73.972992384000065, 15.056870835000041 ], [ 73.99577884200005, 15.010687567000048 ], [ 74.006846550000034, 15.004868882000039 ], [ 74.020192905000044, 15.001776434000078 ], [ 74.031260613000029, 14.995306708000044 ], [ 74.035980665000068, 14.979641018000052 ], [ 74.031016472000033, 14.949774481000077 ], [ 74.030284050000034, 14.935207424000055 ], [ 74.035980665000068, 14.921291408000059 ], [ 74.077159050000034, 14.898382880000042 ], [ 74.081065300000034, 14.89398834800005 ], [ 74.09115644600007, 14.887600002000056 ], [ 74.103037957000083, 14.856919664000088 ], [ 74.111827019000032, 14.846177476000037 ], [ 74.125010613000029, 14.845851955000057 ], [ 74.140879754000082, 14.852687893000052 ], [ 74.154063347000033, 14.862127997000073 ], [ 74.15951582100007, 14.86977773600006 ], [ 74.166188998000052, 14.876532294000071 ], [ 74.197520379000082, 14.890855210000041 ], [ 74.208018425000034, 14.900824286000045 ], [ 74.211192254000082, 14.88735586100006 ], [ 74.220876498000052, 14.882066148000092 ], [ 74.230723504000082, 14.880113023000092 ], [ 74.235199415000068, 14.876532294000071 ], [ 74.233083530000044, 14.864569403000075 ], [ 74.226898634000065, 14.86273834800005 ], [ 74.21810957100007, 14.865383205000057 ], [ 74.208018425000034, 14.86664459800005 ], [ 74.19068444100003, 14.863104559000078 ], [ 74.17896569100003, 14.856268622000073 ], [ 74.169688347000033, 14.84446849200009 ], [ 74.15951582100007, 14.825669664000088 ], [ 74.151540561000047, 14.835109768000052 ], [ 74.140472852000073, 14.838771877000056 ], [ 74.128754102000073, 14.837469794000071 ], [ 74.118662957000083, 14.831854559000078 ], [ 74.114268425000034, 14.82094961100006 ], [ 74.114024285000085, 14.808417059000078 ], [ 74.109141472000033, 14.802639065000051 ], [ 74.091319207000083, 14.811428127000056 ], [ 74.096446160000085, 14.793361721000053 ], [ 74.111338738000029, 14.780340887000079 ], [ 74.14584394600007, 14.763617255000042 ], [ 74.146494988000029, 14.761867580000057 ], [ 74.153330925000034, 14.749945380000042 ], [ 74.157725457000083, 14.748968817000048 ], [ 74.169444207000083, 14.750881252000056 ], [ 74.173838738000029, 14.749945380000042 ], [ 74.180674675000034, 14.742173570000091 ], [ 74.194346550000034, 14.715806382000039 ], [ 74.208750847000033, 14.731838283000059 ], [ 74.220469597000033, 14.738104559000078 ], [ 74.23406009200005, 14.734076239000046 ], [ 74.252940300000034, 14.718939520000049 ], [ 74.263194207000083, 14.701605536000045 ], [ 74.26921634200005, 14.65892161700009 ], [ 74.276215040000068, 14.64008209800005 ], [ 74.26685631600003, 14.631293036000045 ], [ 74.268077019000032, 14.619940497000073 ], [ 74.275889519000032, 14.610174872000073 ], [ 74.287119988000029, 14.605943101000037 ], [ 74.301117384000065, 14.609320380000042 ], [ 74.312266472000033, 14.615464585000041 ], [ 74.32390384200005, 14.61859772300005 ], [ 74.339040561000047, 14.612779039000088 ], [ 74.339040561000047, 14.605943101000037 ], [ 74.307383660000085, 14.60187409100007 ], [ 74.295176629000082, 14.587307033000059 ], [ 74.295909050000034, 14.565008856000077 ], [ 74.303558790000068, 14.537665106000077 ], [ 74.300547722000033, 14.527411200000074 ], [ 74.30982506600003, 14.519435940000051 ], [ 74.324880405000044, 14.517238674000055 ], [ 74.339040561000047, 14.523993231000077 ], [ 74.342946811000047, 14.536851304000038 ], [ 74.340993686000047, 14.551174221000053 ], [ 74.342946811000047, 14.563666083000044 ], [ 74.35873457100007, 14.571234442000048 ], [ 74.355804884000065, 14.562404690000051 ], [ 74.355479363000029, 14.557074286000045 ], [ 74.35873457100007, 14.544582424000055 ], [ 74.364105665000068, 14.54913971600007 ], [ 74.368337436000047, 14.549709377000056 ], [ 74.379242384000065, 14.544582424000055 ], [ 74.377126498000052, 14.541001695000091 ], [ 74.37468509200005, 14.533758856000077 ], [ 74.37240644600007, 14.530218817000048 ], [ 74.385427280000044, 14.524115302000041 ], [ 74.427744988000029, 14.476263739000046 ], [ 74.401133660000085, 14.479722398000092 ], [ 74.397634311000047, 14.475409247000073 ], [ 74.407237175000034, 14.461981512000079 ], [ 74.388845248000052, 14.462713934000078 ], [ 74.377452019000032, 14.484605210000041 ], [ 74.367035352000073, 14.51235586100006 ], [ 74.351898634000065, 14.530218817000048 ], [ 74.353851759000065, 14.505072333000044 ], [ 74.37427819100003, 14.467271226000037 ], [ 74.381602410000085, 14.431219794000071 ], [ 74.386729363000029, 14.424221096000053 ], [ 74.39185631600003, 14.419012762000079 ], [ 74.39421634200005, 14.41079336100006 ], [ 74.394379102000073, 14.384914455000057 ], [ 74.396983269000032, 14.372748114000046 ], [ 74.40357506600003, 14.362982489000046 ], [ 74.412608269000032, 14.344794012000079 ], [ 74.41537519600007, 14.30109284100007 ], [ 74.427744988000029, 14.28384023600006 ], [ 74.436371290000068, 14.279689846000053 ], [ 74.500010613000029, 14.257961330000057 ], [ 74.508962436000047, 14.25031159100007 ], [ 74.494965040000068, 14.247463283000059 ], [ 74.471039259000065, 14.24868398600006 ], [ 74.447032097000033, 14.253973700000074 ], [ 74.433360222000033, 14.263373114000046 ], [ 74.42904707100007, 14.240423895000049 ], [ 74.43873131600003, 14.220119533000059 ], [ 74.467458530000044, 14.181382554000038 ], [ 74.473155144000032, 14.161688544000071 ], [ 74.474864129000082, 14.105698960000041 ], [ 74.479177280000044, 14.095648505000042 ], [ 74.491384311000047, 14.080633856000077 ], [ 74.49537194100003, 14.071519273000092 ], [ 74.496267123000052, 14.061509507000039 ], [ 74.494802280000044, 14.040716864000046 ], [ 74.49537194100003, 14.030585028000075 ], [ 74.504730665000068, 14.010239976000037 ], [ 74.53638756600003, 13.969875393000052 ], [ 74.550791863000029, 13.945502020000049 ], [ 74.583994988000029, 13.903876044000071 ], [ 74.595957879000082, 13.871486721000053 ], [ 74.61459394600007, 13.835516669000071 ], [ 74.623057488000029, 13.77415599200009 ], [ 74.646983269000032, 13.692084052000041 ], [ 74.660492384000065, 13.660060940000051 ], [ 74.676036004000082, 13.701076565000051 ], [ 74.687754754000082, 13.711818752000056 ], [ 74.701426629000082, 13.69476959800005 ], [ 74.688975457000083, 13.69086334800005 ], [ 74.688324415000068, 13.685939846000053 ], [ 74.701426629000082, 13.673732815000051 ], [ 74.712901238000029, 13.656195380000042 ], [ 74.720550977000073, 13.652289130000042 ], [ 74.73560631600003, 13.653794664000088 ], [ 74.723806186000047, 13.645575262000079 ], [ 74.709971550000034, 13.640570380000042 ], [ 74.696787957000083, 13.640448309000078 ], [ 74.68718509200005, 13.646958726000037 ], [ 74.68091881600003, 13.646958726000037 ], [ 74.679698113000029, 13.636460679000038 ], [ 74.67709394600007, 13.63031647300005 ], [ 74.672862175000034, 13.628892320000091 ], [ 74.666677280000044, 13.632757880000042 ], [ 74.667165561000047, 13.628607489000046 ], [ 74.667979363000029, 13.625148830000057 ], [ 74.669932488000029, 13.622015692000048 ], [ 74.67351321700005, 13.619086005000042 ], [ 74.671397332000083, 13.603949286000045 ], [ 74.677939839440583, 13.54954954954955 ] ] ] } }
]
}
